{"type":"FeatureCollection","features":[{"type":"Feature","geometry":{"type":"Point","coordinates":[72.9717258,19.1876087]},"properties":{"highway":"bus_stop","name":"A K Joshi","operator":"Thane Municipal Transport","public_transport":"platform","ref":"878"}},{"type":"Feature","geometry":{"type":"Point","coordinates":[72.971267,19.187541]},"properties":{"highway":"bus_stop","name":"A.K. Joshi Vidyalaya","operator":"Thane Municipal Transport","public_transport":"platform","ref":"31"}},{"type":"Feature","geometry":{"type":"Point","coordinates":[72.8356342,19.3976279]},"properties":{"highway":"bus_stop","name":"Aachola Gaon","operator":"Thane Municipal Transport","public_transport":"platform","ref":"3591"}},{"type":"Feature","geometry":{"type":"Point","coordinates":[72.9742478,19.2056989]},"properties":{"highway":"bus_stop","name":"Aadrsh Ngar","operator":"Thane Municipal Transport","public_transport":"platform","ref":"1033"}},{"type":"Feature","geometry":{"type":"Point","coordinates":[72.9569281,19.2070135]},"properties":{"highway":"bus_stop","name":"Aai Mata Mandir","operator":"Thane Municipal Transport","public_transport":"platform","ref":"976"}},{"type":"Feature","geometry":{"type":"Point","coordinates":[72.9569319,19.2069885]},"properties":{"highway":"bus_stop","name":"Aai Mata Mandir Chowk","operator":"Thane Municipal Transport","public_transport":"platform","ref":"1306"}},{"type":"Feature","geometry":{"type":"Point","coordinates":[73.0363237,19.2037617]},"properties":{"highway":"bus_stop","name":"Aalimghar","operator":"Thane Municipal Transport","public_transport":"platform","ref":"1470"}},{"type":"Feature","geometry":{"type":"Point","coordinates":[72.9777859,19.2157381]},"properties":{"highway":"bus_stop","name":"Aashapura Mndir","operator":"Thane Municipal Transport","public_transport":"platform","ref":"890"}},{"type":"Feature","geometry":{"type":"Point","coordinates":[72.9755172,19.2410653]},"properties":{"highway":"bus_stop","name":"Aazad Nagar Naka","operator":"Thane Municipal Transport","public_transport":"platform","ref":"81"}},{"type":"Feature","geometry":{"type":"Point","coordinates":[72.9801,19.22922]},"properties":{"highway":"bus_stop","name":"Aban Park","operator":"Thane Municipal Transport","public_transport":"platform","ref":"485"}},{"type":"Feature","geometry":{"type":"Point","coordinates":[72.9776909,19.2046577]},"properties":{"highway":"bus_stop","name":"Abhiruchi","operator":"Thane Municipal Transport","public_transport":"platform","ref":"795"}},{"type":"Feature","geometry":{"type":"Point","coordinates":[72.978005,19.2046665]},"properties":{"highway":"bus_stop","name":"Abhiruchi / Castle Mill","operator":"Thane Municipal Transport","public_transport":"platform","ref":"375"}},{"type":"Feature","geometry":{"type":"Point","coordinates":[72.9781874,19.2046682]},"properties":{"highway":"bus_stop","name":"Abhiruchi / Holly Cross School","operator":"Thane Municipal Transport","public_transport":"platform","ref":"3099"}},{"type":"Feature","geometry":{"type":"Point","coordinates":[72.8274878,19.4107202]},"properties":{"highway":"bus_stop","name":"Achole Talav","operator":"Thane Municipal Transport","public_transport":"platform","ref":"3470"}},{"type":"Feature","geometry":{"type":"Point","coordinates":[72.859779,19.4058038]},"properties":{"highway":"bus_stop","name":"Agarwal Estate","operator":"Thane Municipal Transport","public_transport":"platform","ref":"3480"}},{"type":"Feature","geometry":{"type":"Point","coordinates":[72.9537543,19.1993806]},"properties":{"highway":"bus_stop","name":"Agriculture","operator":"Thane Municipal Transport","public_transport":"platform","ref":"516"}},{"type":"Feature","geometry":{"type":"Point","coordinates":[72.8289571,18.9327284]},"properties":{"highway":"bus_stop","name":"Ahilyabai Holkar Chowk","operator":"Thane Municipal Transport","public_transport":"platform","ref":"4040"}},{"type":"Feature","geometry":{"type":"Point","coordinates":[72.9919243,19.2401393]},"properties":{"highway":"bus_stop","name":"Air Force Kolshet","operator":"Thane Municipal Transport","public_transport":"platform","ref":"1211"}},{"type":"Feature","geometry":{"type":"Point","coordinates":[72.949555,19.224512]},"properties":{"highway":"bus_stop","name":"Air Force Station","operator":"Thane Municipal Transport","public_transport":"platform","ref":"239"}},{"type":"Feature","geometry":{"type":"Point","coordinates":[72.9919366,19.2401355]},"properties":{"highway":"bus_stop","name":"Air Force Station Kolshet","operator":"Thane Municipal Transport","public_transport":"platform","ref":"825"}},{"type":"Feature","geometry":{"type":"Point","coordinates":[72.8701875,19.1186983]},"properties":{"highway":"bus_stop","name":"Akruti Centre MIDC","operator":"Thane Municipal Transport","public_transport":"platform","ref":"3765"}},{"type":"Feature","geometry":{"type":"Point","coordinates":[73.0258851,19.16785]},"properties":{"highway":"bus_stop","name":"Almos Colony","operator":"Thane Municipal Transport","public_transport":"platform","ref":"2377"}},{"type":"Feature","geometry":{"type":"Point","coordinates":[72.9007025,19.0660861]},"properties":{"highway":"bus_stop","name":"Amar Mahal","operator":"Thane Municipal Transport","public_transport":"platform","ref":"4032"}},{"type":"Feature","geometry":{"type":"Point","coordinates":[72.878637,19.269292]},"properties":{"highway":"bus_stop","name":"Amar Palace","operator":"Thane Municipal Transport","public_transport":"platform","ref":"1052"}},{"type":"Feature","geometry":{"type":"Point","coordinates":[72.9496648,19.1782995]},"properties":{"highway":"bus_stop","name":"Ambaji Dham","operator":"Thane Municipal Transport","public_transport":"platform","ref":"990"}},{"type":"Feature","geometry":{"type":"Point","coordinates":[72.955567,19.1975804]},"properties":{"highway":"bus_stop","name":"Ambika Nagar","operator":"Thane Municipal Transport","public_transport":"platform","ref":"517"}},{"type":"Feature","geometry":{"type":"Point","coordinates":[72.97746,19.20747]},"properties":{"highway":"bus_stop","name":"Ambika Yog Kutir","operator":"Thane Municipal Transport","public_transport":"platform","ref":"2492"}},{"type":"Feature","geometry":{"type":"Point","coordinates":[72.9771983,19.2071086]},"properties":{"highway":"bus_stop","name":"Ambika Yoga Kutir","operator":"Thane Municipal Transport","public_transport":"platform","ref":"416"}},{"type":"Feature","geometry":{"type":"Point","coordinates":[72.9774895,19.2070986]},"properties":{"highway":"bus_stop","name":"Ambika Yogkutir","operator":"Thane Municipal Transport","public_transport":"platform","ref":"917"}},{"type":"Feature","geometry":{"type":"Point","coordinates":[73.0128181,19.208947]},"properties":{"highway":"bus_stop","name":"Amrut Angan","operator":"Thane Municipal Transport","public_transport":"platform","ref":"1515"}},{"type":"Feature","geometry":{"type":"Point","coordinates":[73.0230143,19.1739736]},"properties":{"highway":"bus_stop","name":"Amrut Nagar","operator":"Thane Municipal Transport","public_transport":"platform","ref":"2375"}},{"type":"Feature","geometry":{"type":"Point","coordinates":[72.9671901,19.1788079]},"properties":{"highway":"bus_stop","name":"Anand Nagar","operator":"Thane Municipal Transport","public_transport":"platform","ref":"8"}},{"type":"Feature","geometry":{"type":"Point","coordinates":[72.9698419,19.2649823]},"properties":{"highway":"bus_stop","name":"Anand Nagar Agar","operator":"Thane Municipal Transport","public_transport":"platform","ref":"3462"}},{"type":"Feature","geometry":{"type":"Point","coordinates":[72.9698419,19.2649823]},"properties":{"highway":"bus_stop","name":"Anand Nagar Depot","operator":"Thane Municipal Transport","public_transport":"platform","ref":"3414"}},{"type":"Feature","geometry":{"type":"Point","coordinates":[73.00520167,19.20189333]},"properties":{"highway":"bus_stop","name":"Anand Vihar","operator":"Thane Municipal Transport","public_transport":"platform","ref":"3175"}},{"type":"Feature","geometry":{"type":"Point","coordinates":[72.8481895,19.1192184]},"properties":{"highway":"bus_stop","name":"Andheri Station (E) Agarkar Chowk","operator":"Thane Municipal Transport","public_transport":"platform","ref":"3762"}},{"type":"Feature","geometry":{"type":"Point","coordinates":[73.0387506,19.2158233]},"properties":{"highway":"bus_stop","name":"Anjur","operator":"Thane Municipal Transport","public_transport":"platform","ref":"1473"}},{"type":"Feature","geometry":{"type":"Point","coordinates":[73.0412836,19.2728192]},"properties":{"highway":"bus_stop","name":"Anjur Phata","operator":"Thane Municipal Transport","public_transport":"platform","ref":"1364"}},{"type":"Feature","geometry":{"type":"Point","coordinates":[72.9746721,19.258112]},"properties":{"highway":"bus_stop","name":"Anunagar","operator":"Thane Municipal Transport","public_transport":"platform","ref":"1876"}},{"type":"Feature","geometry":{"type":"Point","coordinates":[72.9683384,19.192674]},"properties":{"highway":"bus_stop","name":"Aradhana Cinema","operator":"Thane Municipal Transport","public_transport":"platform","ref":"168"}},{"type":"Feature","geometry":{"type":"Point","coordinates":[72.9776956,19.21555]},"properties":{"highway":"bus_stop","name":"Ashapura Mandir","operator":"Thane Municipal Transport","public_transport":"platform","ref":"44"}},{"type":"Feature","geometry":{"type":"Point","coordinates":[72.9777799,19.2157385]},"properties":{"highway":"bus_stop","name":"Ashapura Mandir / Majiwada Naka","operator":"Thane Municipal Transport","public_transport":"platform","ref":"21"}},{"type":"Feature","geometry":{"type":"Point","coordinates":[72.9636343,19.2200723]},"properties":{"highway":"bus_stop","name":"Ashiyan Cable","operator":"Thane Municipal Transport","public_transport":"platform","ref":"752"}},{"type":"Feature","geometry":{"type":"Point","coordinates":[72.9942555,19.2221747]},"properties":{"highway":"bus_stop","name":"Ashok Nagar","operator":"Thane Municipal Transport","public_transport":"platform","ref":"1531"}},{"type":"Feature","geometry":{"type":"Point","coordinates":[72.96448667,19.21963833]},"properties":{"highway":"bus_stop","name":"Asian Cable","operator":"Thane Municipal Transport","public_transport":"platform","ref":"2889"}},{"type":"Feature","geometry":{"type":"Point","coordinates":[72.9822108,19.2455182]},"properties":{"highway":"bus_stop","name":"Atriya Society","operator":"Thane Municipal Transport","public_transport":"platform","ref":"86"}},{"type":"Feature","geometry":{"type":"Point","coordinates":[72.9551377,19.1873143]},"properties":{"highway":"bus_stop","name":"Automatic Company","operator":"Thane Municipal Transport","public_transport":"platform","ref":"320"}},{"type":"Feature","geometry":{"type":"Point","coordinates":[72.9805499,19.2394399]},"properties":{"highway":"bus_stop","name":"Azad Nagar","operator":"Thane Municipal Transport","public_transport":"platform","ref":"83"}},{"type":"Feature","geometry":{"type":"Point","coordinates":[72.9754136,19.240935]},"properties":{"highway":"bus_stop","name":"Azad Nagar Naka","operator":"Thane Municipal Transport","public_transport":"platform","ref":"15"}},{"type":"Feature","geometry":{"type":"Point","coordinates":[72.97553667,19.24095333]},"properties":{"highway":"bus_stop","name":"Azadnagar Naka","operator":"Thane Municipal Transport","public_transport":"platform","ref":"1916"}},{"type":"Feature","geometry":{"type":"Point","coordinates":[73.072125,19.285388]},"properties":{"highway":"bus_stop","name":"Babla Compound / Hanuman Mandir","operator":"Thane Municipal Transport","public_transport":"platform","ref":"1411"}},{"type":"Feature","geometry":{"type":"Point","coordinates":[72.9895813,19.221338]},"properties":{"highway":"bus_stop","name":"Balkum Naka","operator":"Thane Municipal Transport","public_transport":"platform","ref":"1216"}},{"type":"Feature","geometry":{"type":"Point","coordinates":[72.9912165,19.2217683]},"properties":{"highway":"bus_stop","name":"Balkum Pada No 1","operator":"Thane Municipal Transport","public_transport":"platform","ref":"1532"}},{"type":"Feature","geometry":{"type":"Point","coordinates":[72.9898356,19.2200382]},"properties":{"highway":"bus_stop","name":"Balkum Pada No 2","operator":"Thane Municipal Transport","public_transport":"platform","ref":"3014"}},{"type":"Feature","geometry":{"type":"Point","coordinates":[72.9908142,19.2165346]},"properties":{"highway":"bus_stop","name":"Balkum Pada No 3","operator":"Thane Municipal Transport","public_transport":"platform","ref":"941"}},{"type":"Feature","geometry":{"type":"Point","coordinates":[72.8608615,19.1991328]},"properties":{"highway":"bus_stop","name":"Bandongri","operator":"Thane Municipal Transport","public_transport":"platform","ref":"2555"}},{"type":"Feature","geometry":{"type":"Point","coordinates":[72.8925662,19.3629974]},"properties":{"highway":"bus_stop","name":"Bapana Bridge","operator":"Thane Municipal Transport","public_transport":"platform","ref":"3488"}},{"type":"Feature","geometry":{"type":"Point","coordinates":[72.8205371,19.4194397]},"properties":{"highway":"bus_stop","name":"Bappa Sitaram","operator":"Thane Municipal Transport","public_transport":"platform","ref":"3465"}},{"type":"Feature","geometry":{"type":"Point","coordinates":[72.9675495,19.1816995]},"properties":{"highway":"bus_stop","name":"Bara Bunglow","operator":"Thane Municipal Transport","public_transport":"platform","ref":"3530"}},{"type":"Feature","geometry":{"type":"Point","coordinates":[72.969181,19.2594199]},"properties":{"highway":"bus_stop","name":"Batata Company","operator":"Thane Municipal Transport","public_transport":"platform","ref":"554"}},{"type":"Feature","geometry":{"type":"Point","coordinates":[72.9691728,19.259425]},"properties":{"highway":"bus_stop","name":"Batata Company / Vijay Garden","operator":"Thane Municipal Transport","public_transport":"platform","ref":"360"}},{"type":"Feature","geometry":{"type":"Point","coordinates":[72.9691541,19.2594181]},"properties":{"highway":"bus_stop","name":"Batata Company / Vijay Garden / Dmart","operator":"Thane Municipal Transport","public_transport":"platform","ref":"1639"}},{"type":"Feature","geometry":{"type":"Point","coordinates":[72.9860575,19.2309076]},"properties":{"highway":"bus_stop","name":"Bayer Main Gate","operator":"Thane Municipal Transport","public_transport":"platform","ref":"830"}},{"type":"Feature","geometry":{"type":"Point","coordinates":[72.986942,19.226411]},"properties":{"highway":"bus_stop","name":"Berai India Gate","operator":"Thane Municipal Transport","public_transport":"platform","ref":"1215"}},{"type":"Feature","geometry":{"type":"Point","coordinates":[72.9618217,19.2202929]},"properties":{"highway":"bus_stop","name":"Bethany Hospital","operator":"Thane Municipal Transport","public_transport":"platform","ref":"707"}},{"type":"Feature","geometry":{"type":"Point","coordinates":[72.951685,19.2835373]},"properties":{"highway":"bus_stop","name":"Bhaindar Pada","operator":"Thane Municipal Transport","public_transport":"platform","ref":"1"}},{"type":"Feature","geometry":{"type":"Point","coordinates":[72.951895,19.2835366]},"properties":{"highway":"bus_stop","name":"Bhainder Pada","operator":"Thane Municipal Transport","public_transport":"platform","ref":"2069"}},{"type":"Feature","geometry":{"type":"Point","coordinates":[72.9500452,19.1440955]},"properties":{"highway":"bus_stop","name":"Bhandup Gaon","operator":"Thane Municipal Transport","public_transport":"platform","ref":"3788"}},{"type":"Feature","geometry":{"type":"Point","coordinates":[72.9566687,19.1537416]},"properties":{"highway":"bus_stop","name":"Bhandup Pumping Centre","operator":"Thane Municipal Transport","public_transport":"platform","ref":"3789"}},{"type":"Feature","geometry":{"type":"Point","coordinates":[72.9566639,19.1537437]},"properties":{"highway":"bus_stop","name":"Bhandup Pumping Station","operator":"Thane Municipal Transport","public_transport":"platform","ref":"4023"}},{"type":"Feature","geometry":{"type":"Point","coordinates":[72.950047,19.1440957]},"properties":{"highway":"bus_stop","name":"Bhandup Village","operator":"Thane Municipal Transport","public_transport":"platform","ref":"4010"}},{"type":"Feature","geometry":{"type":"Point","coordinates":[73.0313137,19.1575124]},"properties":{"highway":"bus_stop","name":"Bharat Gears","operator":"Thane Municipal Transport","public_transport":"platform","ref":"2382"}},{"type":"Feature","geometry":{"type":"Point","coordinates":[72.8590797,19.0617066]},"properties":{"highway":"bus_stop","name":"Bharat Nagar","operator":"Thane Municipal Transport","public_transport":"platform","ref":"3858"}},{"type":"Feature","geometry":{"type":"Point","coordinates":[72.9439169,19.2363925]},"properties":{"highway":"bus_stop","name":"Bhendi Pada","operator":"Thane Municipal Transport","public_transport":"platform","ref":"244"}},{"type":"Feature","geometry":{"type":"Point","coordinates":[73.0481918,19.2811454]},"properties":{"highway":"bus_stop","name":"Bhiwandi Bypass","operator":"Thane Municipal Transport","public_transport":"platform","ref":"4068"}},{"type":"Feature","geometry":{"type":"Point","coordinates":[73.066018,19.301902]},"properties":{"highway":"bus_stop","name":"Bhiwandi ST Bus Stand","operator":"Thane Municipal Transport","public_transport":"platform","ref":"1407"}},{"type":"Feature","geometry":{"type":"Point","coordinates":[72.8549553,19.4054709]},"properties":{"highway":"bus_stop","name":"Bhoidapada","operator":"Thane Municipal Transport","public_transport":"platform","ref":"3479"}},{"type":"Feature","geometry":{"type":"Point","coordinates":[72.9757972,19.2587997]},"properties":{"highway":"bus_stop","name":"Bhoomi Acres","operator":"Thane Municipal Transport","public_transport":"platform","ref":"92"}},{"type":"Feature","geometry":{"type":"Point","coordinates":[73.073793,19.263278]},"properties":{"highway":"bus_stop","name":"Bhoomi World","operator":"Thane Municipal Transport","public_transport":"platform","ref":"1416"}},{"type":"Feature","geometry":{"type":"Point","coordinates":[72.9527346,19.2185195]},"properties":{"highway":"bus_stop","name":"Bhu Kendra","operator":"Thane Municipal Transport","public_transport":"platform","ref":"238"}},{"type":"Feature","geometry":{"type":"Point","coordinates":[72.8544128,19.1126253]},"properties":{"highway":"bus_stop","name":"Bisleri Signal Andheri Station Highway","operator":"Thane Municipal Transport","public_transport":"platform","ref":"2565"}},{"type":"Feature","geometry":{"type":"Point","coordinates":[72.8529704,19.0562861]},"properties":{"highway":"bus_stop","name":"BKC","operator":"Thane Municipal Transport","public_transport":"platform","ref":"2573"}},{"type":"Feature","geometry":{"type":"Point","coordinates":[72.9866952,19.2563574]},"properties":{"highway":"bus_stop","name":"Blue Bell","operator":"Thane Municipal Transport","public_transport":"platform","ref":"3383"}},{"type":"Feature","geometry":{"type":"Point","coordinates":[72.9866952,19.2563574]},"properties":{"highway":"bus_stop","name":"Bluebell","operator":"Thane Municipal Transport","public_transport":"platform","ref":"3384"}},{"type":"Feature","geometry":{"type":"Point","coordinates":[72.9895935,19.2364292]},"properties":{"highway":"bus_stop","name":"Boringer","operator":"Thane Municipal Transport","public_transport":"platform","ref":"827"}},{"type":"Feature","geometry":{"type":"Point","coordinates":[72.8634934,19.2301077]},"properties":{"highway":"bus_stop","name":"Borivali National Park","operator":"Thane Municipal Transport","public_transport":"platform","ref":"1739"}},{"type":"Feature","geometry":{"type":"Point","coordinates":[72.8575536,19.2284315]},"properties":{"highway":"bus_stop","name":"Borivali Station (East)","operator":"Thane Municipal Transport","public_transport":"platform","ref":"1043"}},{"type":"Feature","geometry":{"type":"Point","coordinates":[72.8600953,19.2316678]},"properties":{"highway":"bus_stop","name":"Borivali Sukurwadi ST Bus Stop","operator":"Thane Municipal Transport","public_transport":"platform","ref":"1044"}},{"type":"Feature","geometry":{"type":"Point","coordinates":[72.954597,19.195376]},"properties":{"highway":"bus_stop","name":"Bradma Compound","operator":"Thane Municipal Transport","public_transport":"platform","ref":"518"}},{"type":"Feature","geometry":{"type":"Point","coordinates":[72.9861405,19.2474796]},"properties":{"highway":"bus_stop","name":"Brahmand","operator":"Thane Municipal Transport","public_transport":"platform","ref":"2475"}},{"type":"Feature","geometry":{"type":"Point","coordinates":[72.9861329,19.2474735]},"properties":{"highway":"bus_stop","name":"Brahmand / Dharmacha Pada","operator":"Thane Municipal Transport","public_transport":"platform","ref":"2830"}},{"type":"Feature","geometry":{"type":"Point","coordinates":[72.98123833,19.2411165]},"properties":{"highway":"bus_stop","name":"Brahmand Phase 1,2","operator":"Thane Municipal Transport","public_transport":"platform","ref":"2835"}},{"type":"Feature","geometry":{"type":"Point","coordinates":[72.9815388,19.241329]},"properties":{"highway":"bus_stop","name":"Brahmand Phase 1/2","operator":"Thane Municipal Transport","public_transport":"platform","ref":"2826"}},{"type":"Feature","geometry":{"type":"Point","coordinates":[72.9815394,19.2411262]},"properties":{"highway":"bus_stop","name":"Brahmand Phase 2","operator":"Thane Municipal Transport","public_transport":"platform","ref":"3894"}},{"type":"Feature","geometry":{"type":"Point","coordinates":[72.9815386,19.2411138]},"properties":{"highway":"bus_stop","name":"Brahmand Phase 4","operator":"Thane Municipal Transport","public_transport":"platform","ref":"84"}},{"type":"Feature","geometry":{"type":"Point","coordinates":[72.9835585,19.2449052]},"properties":{"highway":"bus_stop","name":"Brahmand Phase 5","operator":"Thane Municipal Transport","public_transport":"platform","ref":"2477"}},{"type":"Feature","geometry":{"type":"Point","coordinates":[72.984676,19.2464828]},"properties":{"highway":"bus_stop","name":"Brahmand Phase 6","operator":"Thane Municipal Transport","public_transport":"platform","ref":"2476"}},{"type":"Feature","geometry":{"type":"Point","coordinates":[72.9760037,19.2025532]},"properties":{"highway":"bus_stop","name":"Bramhala Talav / Manorpada","operator":"Thane Municipal Transport","public_transport":"platform","ref":"472"}},{"type":"Feature","geometry":{"type":"Point","coordinates":[72.9760092,19.2025701]},"properties":{"highway":"bus_stop","name":"Bramhla Talav/ Mnorpada","operator":"Thane Municipal Transport","public_transport":"platform","ref":"884"}},{"type":"Feature","geometry":{"type":"Point","coordinates":[72.959689,19.2121189]},"properties":{"highway":"bus_stop","name":"Building No 3","operator":"Thane Municipal Transport","public_transport":"platform","ref":"233"}},{"type":"Feature","geometry":{"type":"Point","coordinates":[72.9600137,19.2121514]},"properties":{"highway":"bus_stop","name":"Building No. 3","operator":"Thane Municipal Transport","public_transport":"platform","ref":"128"}},{"type":"Feature","geometry":{"type":"Point","coordinates":[72.8713398,19.1231129]},"properties":{"highway":"bus_stop","name":"C-Cross Road","operator":"Thane Municipal Transport","public_transport":"platform","ref":"3950"}},{"type":"Feature","geometry":{"type":"Point","coordinates":[72.9668404,19.2053512]},"properties":{"highway":"bus_stop","name":"Cadbury Company","operator":"Thane Municipal Transport","public_transport":"platform","ref":"131"}},{"type":"Feature","geometry":{"type":"Point","coordinates":[72.9679257,19.2039567]},"properties":{"highway":"bus_stop","name":"Cadbury Juction","operator":"Thane Municipal Transport","public_transport":"platform","ref":"741"}},{"type":"Feature","geometry":{"type":"Point","coordinates":[72.9679265,19.203908]},"properties":{"highway":"bus_stop","name":"Cadbury Junction","operator":"Thane Municipal Transport","public_transport":"platform","ref":"24"}},{"type":"Feature","geometry":{"type":"Point","coordinates":[72.967116,19.205397]},"properties":{"highway":"bus_stop","name":"Cadbury Junction 2","operator":"Thane Municipal Transport","public_transport":"platform","ref":"198"}},{"type":"Feature","geometry":{"type":"Point","coordinates":[72.8408627,18.94983]},"properties":{"highway":"bus_stop","name":"Carnac Bunder","operator":"Thane Municipal Transport","public_transport":"platform","ref":"4035"}},{"type":"Feature","geometry":{"type":"Point","coordinates":[72.9771831,19.2045504]},"properties":{"highway":"bus_stop","name":"Castel Mil","operator":"Thane Municipal Transport","public_transport":"platform","ref":"886"}},{"type":"Feature","geometry":{"type":"Point","coordinates":[72.9771812,19.20467]},"properties":{"highway":"bus_stop","name":"Castle Mill","operator":"Thane Municipal Transport","public_transport":"platform","ref":"808"}},{"type":"Feature","geometry":{"type":"Point","coordinates":[72.9781967,19.2046596]},"properties":{"highway":"bus_stop","name":"Castle Mill / Abhiruchi","operator":"Thane Municipal Transport","public_transport":"platform","ref":"1656"}},{"type":"Feature","geometry":{"type":"Point","coordinates":[72.977448,19.2046973]},"properties":{"highway":"bus_stop","name":"Castle Mill Naka","operator":"Thane Municipal Transport","public_transport":"platform","ref":"330"}},{"type":"Feature","geometry":{"type":"Point","coordinates":[72.979892,19.197896]},"properties":{"highway":"bus_stop","name":"Central Maidan","operator":"Thane Municipal Transport","public_transport":"platform","ref":"136"}},{"type":"Feature","geometry":{"type":"Point","coordinates":[72.8183182,19.4252603]},"properties":{"highway":"bus_stop","name":"Central Park Nalasopara","operator":"Thane Municipal Transport","public_transport":"platform","ref":"3463"}},{"type":"Feature","geometry":{"type":"Point","coordinates":[72.8589512,19.113425]},"properties":{"highway":"bus_stop","name":"Chakala","operator":"Thane Municipal Transport","public_transport":"platform","ref":"3764"}},{"type":"Feature","geometry":{"type":"Point","coordinates":[73.0075062,19.2316883]},"properties":{"highway":"bus_stop","name":"Chamunda","operator":"Thane Municipal Transport","public_transport":"platform","ref":"1381"}},{"type":"Feature","geometry":{"type":"Point","coordinates":[72.824232,19.4150408]},"properties":{"highway":"bus_stop","name":"Chandan Naka","operator":"Thane Municipal Transport","public_transport":"platform","ref":"3468"}},{"type":"Feature","geometry":{"type":"Point","coordinates":[72.9720318,19.1965909]},"properties":{"highway":"bus_stop","name":"Charai","operator":"Thane Municipal Transport","public_transport":"platform","ref":"469"}},{"type":"Feature","geometry":{"type":"Point","coordinates":[72.9047432,19.069429]},"properties":{"highway":"bus_stop","name":"Chedda Nagar","operator":"Thane Municipal Transport","public_transport":"platform","ref":"3866"}},{"type":"Feature","geometry":{"type":"Point","coordinates":[72.915003,19.274395]},"properties":{"highway":"bus_stop","name":"Chena Bridge","operator":"Thane Municipal Transport","public_transport":"platform","ref":"566"}},{"type":"Feature","geometry":{"type":"Point","coordinates":[72.9793363,19.1878504]},"properties":{"highway":"bus_stop","name":"Chendani Koliwada","operator":"Thane Municipal Transport","public_transport":"platform","ref":"2647"}},{"type":"Feature","geometry":{"type":"Point","coordinates":[72.9798192,19.1878495]},"properties":{"highway":"bus_stop","name":"Chendani Koliwada (CIDCO)","operator":"Thane Municipal Transport","public_transport":"platform","ref":"3008"}},{"type":"Feature","geometry":{"type":"Point","coordinates":[72.9809722,19.2176574]},"properties":{"highway":"bus_stop","name":"Chhabhaiya Park","operator":"Thane Municipal Transport","public_transport":"platform","ref":"479"}},{"type":"Feature","geometry":{"type":"Point","coordinates":[73.058487,19.3052518]},"properties":{"highway":"bus_stop","name":"Chhatrapati Shivaji Maharaj Chowk Bhiwandi","operator":"Thane Municipal Transport","public_transport":"platform","ref":"1404"}},{"type":"Feature","geometry":{"type":"Point","coordinates":[72.836529,18.9384672]},"properties":{"highway":"bus_stop","name":"Chhatrapati Shivaji Terminus (GPO)","operator":"Thane Municipal Transport","public_transport":"platform","ref":"4037"}},{"type":"Feature","geometry":{"type":"Point","coordinates":[72.9043747,19.0686409]},"properties":{"highway":"bus_stop","name":"Chheda Nagar","operator":"Thane Municipal Transport","public_transport":"platform","ref":"3937"}},{"type":"Feature","geometry":{"type":"Point","coordinates":[72.8966673,19.3828711]},"properties":{"highway":"bus_stop","name":"Chinchoti Naka","operator":"Thane Municipal Transport","public_transport":"platform","ref":"3487"}},{"type":"Feature","geometry":{"type":"Point","coordinates":[73.0513048,19.1469407]},"properties":{"highway":"bus_stop","name":"Chintamani Hotel / Jain Temple","operator":"Thane Municipal Transport","public_transport":"platform","ref":"3607"}},{"type":"Feature","geometry":{"type":"Point","coordinates":[72.8677372,19.0685355]},"properties":{"highway":"bus_stop","name":"Citi Bank BKC","operator":"Thane Municipal Transport","public_transport":"platform","ref":"3861"}},{"type":"Feature","geometry":{"type":"Point","coordinates":[72.9773678,19.198908]},"properties":{"highway":"bus_stop","name":"Civil Hospital","operator":"Thane Municipal Transport","public_transport":"platform","ref":"135"}},{"type":"Feature","geometry":{"type":"Point","coordinates":[72.9865353,19.2198479]},"properties":{"highway":"bus_stop","name":"Colour Chem","operator":"Thane Municipal Transport","public_transport":"platform","ref":"1534"}},{"type":"Feature","geometry":{"type":"Point","coordinates":[72.9865348,19.219983]},"properties":{"highway":"bus_stop","name":"Colour Chem\u0026rlm;","operator":"Thane Municipal Transport","public_transport":"platform","ref":"1282"}},{"type":"Feature","geometry":{"type":"Point","coordinates":[72.9587253,19.2169436]},"properties":{"highway":"bus_stop","name":"Cosmos Bank","operator":"Thane Municipal Transport","public_transport":"platform","ref":"1177"}},{"type":"Feature","geometry":{"type":"Point","coordinates":[72.9586612,19.2166971]},"properties":{"highway":"bus_stop","name":"Cosmos Paradise","operator":"Thane Municipal Transport","public_transport":"platform","ref":"705"}},{"type":"Feature","geometry":{"type":"Point","coordinates":[72.9772351,19.1965213]},"properties":{"highway":"bus_stop","name":"Court Naka","operator":"Thane Municipal Transport","public_transport":"platform","ref":"137"}},{"type":"Feature","geometry":{"type":"Point","coordinates":[72.8478101,19.0179758]},"properties":{"highway":"bus_stop","name":"Dadar (E) Tt Circle","operator":"Thane Municipal Transport","public_transport":"platform","ref":"3998"}},{"type":"Feature","geometry":{"type":"Point","coordinates":[72.9964798,19.2222896]},"properties":{"highway":"bus_stop","name":"Dadlani Park","operator":"Thane Municipal Transport","public_transport":"platform","ref":"1530"}},{"type":"Feature","geometry":{"type":"Point","coordinates":[72.9805364,19.1915524]},"properties":{"highway":"bus_stop","name":"Dadoji Konddev Stadium","operator":"Thane Municipal Transport","public_transport":"platform","ref":"2648"}},{"type":"Feature","geometry":{"type":"Point","coordinates":[72.8714108,19.2577737]},"properties":{"highway":"bus_stop","name":"Dahisar Check Naka","operator":"Thane Municipal Transport","public_transport":"platform","ref":"1613"}},{"type":"Feature","geometry":{"type":"Point","coordinates":[72.871844,19.257783]},"properties":{"highway":"bus_stop","name":"Dahisar Toll Naka","operator":"Thane Municipal Transport","public_transport":"platform","ref":"1049"}},{"type":"Feature","geometry":{"type":"Point","coordinates":[72.979655,19.26483]},"properties":{"highway":"bus_stop","name":"Damyanti Smruti","operator":"Thane Municipal Transport","public_transport":"platform","ref":"1878"}},{"type":"Feature","geometry":{"type":"Point","coordinates":[72.996775,19.2259]},"properties":{"highway":"bus_stop","name":"Datta Mandir","operator":"Thane Municipal Transport","public_transport":"platform","ref":"1352"}},{"type":"Feature","geometry":{"type":"Point","coordinates":[72.8608987,19.139291]},"properties":{"highway":"bus_stop","name":"Datta Tekdi","operator":"Thane Municipal Transport","public_transport":"platform","ref":"3959"}},{"type":"Feature","geometry":{"type":"Point","coordinates":[72.995658,19.198807]},"properties":{"highway":"bus_stop","name":"Datta Wadi","operator":"Thane Municipal Transport","public_transport":"platform","ref":"293"}},{"type":"Feature","geometry":{"type":"Point","coordinates":[72.8683089,19.2114138]},"properties":{"highway":"bus_stop","name":"Dattani Park","operator":"Thane Municipal Transport","public_transport":"platform","ref":"2554"}},{"type":"Feature","geometry":{"type":"Point","coordinates":[73.0227952,19.1930965]},"properties":{"highway":"bus_stop","name":"Dattu Wadi Mumbra/Sainath Hospital","operator":"Thane Municipal Transport","public_transport":"platform","ref":"3628"}},{"type":"Feature","geometry":{"type":"Point","coordinates":[72.97077667,19.197025]},"properties":{"highway":"bus_stop","name":"Debonair Society","operator":"Thane Municipal Transport","public_transport":"platform","ref":"1794"}},{"type":"Feature","geometry":{"type":"Point","coordinates":[72.9779724,19.2050459]},"properties":{"highway":"bus_stop","name":"Desai Bangla","operator":"Thane Municipal Transport","public_transport":"platform","ref":"1825"}},{"type":"Feature","geometry":{"type":"Point","coordinates":[72.961593,19.220223]},"properties":{"highway":"bus_stop","name":"Devdaya Company","operator":"Thane Municipal Transport","public_transport":"platform","ref":"399"}},{"type":"Feature","geometry":{"type":"Point","coordinates":[72.957715,19.2147434]},"properties":{"highway":"bus_stop","name":"Devdaya Nagar","operator":"Thane Municipal Transport","public_transport":"platform","ref":"126"}},{"type":"Feature","geometry":{"type":"Point","coordinates":[72.9604742,19.2209627]},"properties":{"highway":"bus_stop","name":"Devidayal Company","operator":"Thane Municipal Transport","public_transport":"platform","ref":"751"}},{"type":"Feature","geometry":{"type":"Point","coordinates":[72.8636383,19.2246222]},"properties":{"highway":"bus_stop","name":"Devipada","operator":"Thane Municipal Transport","public_transport":"platform","ref":"2552"}},{"type":"Feature","geometry":{"type":"Point","coordinates":[72.9702296,19.2225063]},"properties":{"highway":"bus_stop","name":"Dharamvir Nagar / Happy Valley Circle","operator":"Thane Municipal Transport","public_transport":"platform","ref":"784"}},{"type":"Feature","geometry":{"type":"Point","coordinates":[72.9702312,19.2225821]},"properties":{"highway":"bus_stop","name":"Dharmveer Ngar / Happy Valley","operator":"Thane Municipal Transport","public_transport":"platform","ref":"896"}},{"type":"Feature","geometry":{"type":"Point","coordinates":[72.97998,19.22697]},"properties":{"highway":"bus_stop","name":"Dhokali Naka","operator":"Thane Municipal Transport","public_transport":"platform","ref":"484"}},{"type":"Feature","geometry":{"type":"Point","coordinates":[72.8648481,19.0667897]},"properties":{"highway":"bus_stop","name":"Diamond Market BKC","operator":"Thane Municipal Transport","public_transport":"platform","ref":"3860"}},{"type":"Feature","geometry":{"type":"Point","coordinates":[72.8581902,19.1880237]},"properties":{"highway":"bus_stop","name":"Dindoshi Police Station","operator":"Thane Municipal Transport","public_transport":"platform","ref":"2556"}},{"type":"Feature","geometry":{"type":"Point","coordinates":[73.0280199,19.2300117]},"properties":{"highway":"bus_stop","name":"Diva","operator":"Thane Municipal Transport","public_transport":"platform","ref":"1479"}},{"type":"Feature","geometry":{"type":"Point","coordinates":[73.028117,19.2300088]},"properties":{"highway":"bus_stop","name":"Diva 1 / Diva Gaon / Anjur","operator":"Thane Municipal Transport","public_transport":"platform","ref":"1422"}},{"type":"Feature","geometry":{"type":"Point","coordinates":[73.0327,19.233202]},"properties":{"highway":"bus_stop","name":"Diva 2 / Diva Phata / Petrol Pump","operator":"Thane Municipal Transport","public_transport":"platform","ref":"1421"}},{"type":"Feature","geometry":{"type":"Point","coordinates":[73.032814,19.2331993]},"properties":{"highway":"bus_stop","name":"Diva Phata","operator":"Thane Municipal Transport","public_transport":"platform","ref":"1478"}},{"type":"Feature","geometry":{"type":"Point","coordinates":[72.8934705,19.3508311]},"properties":{"highway":"bus_stop","name":"Diva-Vasai Railway Bridge","operator":"Thane Municipal Transport","public_transport":"platform","ref":"3489"}},{"type":"Feature","geometry":{"type":"Point","coordinates":[73.0401042,19.1477153]},"properties":{"highway":"bus_stop","name":"Diwale/Bhandarli Gaon","operator":"Thane Municipal Transport","public_transport":"platform","ref":"3612"}},{"type":"Feature","geometry":{"type":"Point","coordinates":[72.9493664,19.2024046]},"properties":{"highway":"bus_stop","name":"Dnyan Sarita","operator":"Thane Municipal Transport","public_transport":"platform","ref":"1301"}},{"type":"Feature","geometry":{"type":"Point","coordinates":[72.948963,19.1786079]},"properties":{"highway":"bus_stop","name":"Dnyan Sarita College","operator":"Thane Municipal Transport","public_transport":"platform","ref":"995"}},{"type":"Feature","geometry":{"type":"Point","coordinates":[72.957507,19.201669]},"properties":{"highway":"bus_stop","name":"Dnyaneshwar Nagar","operator":"Thane Municipal Transport","public_transport":"platform","ref":"160"}},{"type":"Feature","geometry":{"type":"Point","coordinates":[72.9650392,19.1838464]},"properties":{"highway":"bus_stop","name":"Dnyansadhna College","operator":"Thane Municipal Transport","public_transport":"platform","ref":"3529"}},{"type":"Feature","geometry":{"type":"Point","coordinates":[72.97304,19.2505138]},"properties":{"highway":"bus_stop","name":"Dongri Pada","operator":"Thane Municipal Transport","public_transport":"platform","ref":"13"}},{"type":"Feature","geometry":{"type":"Point","coordinates":[72.95167,19.1943374]},"properties":{"highway":"bus_stop","name":"Durdwani Kendra","operator":"Thane Municipal Transport","public_transport":"platform","ref":"1320"}},{"type":"Feature","geometry":{"type":"Point","coordinates":[72.8720857,19.1380335]},"properties":{"highway":"bus_stop","name":"Durga Nagar","operator":"Thane Municipal Transport","public_transport":"platform","ref":"3954"}},{"type":"Feature","geometry":{"type":"Point","coordinates":[73.0160217,19.2387761]},"properties":{"highway":"bus_stop","name":"Durgesh Complex","operator":"Thane Municipal Transport","public_transport":"platform","ref":"3020"}},{"type":"Feature","geometry":{"type":"Point","coordinates":[73.0173509,19.2434545]},"properties":{"highway":"bus_stop","name":"Durgesh Park","operator":"Thane Municipal Transport","public_transport":"platform","ref":"1356"}},{"type":"Feature","geometry":{"type":"Point","coordinates":[72.8259356,19.4133889]},"properties":{"highway":"bus_stop","name":"Dwarka Hotel","operator":"Thane Municipal Transport","public_transport":"platform","ref":"3469"}},{"type":"Feature","geometry":{"type":"Point","coordinates":[72.9695482,19.2279323]},"properties":{"highway":"bus_stop","name":"Edenwood","operator":"Thane Municipal Transport","public_transport":"platform","ref":"441"}},{"type":"Feature","geometry":{"type":"Point","coordinates":[72.9616998,19.1707653]},"properties":{"highway":"bus_stop","name":"Endavour Society","operator":"Thane Municipal Transport","public_transport":"platform","ref":"2800"}},{"type":"Feature","geometry":{"type":"Point","coordinates":[72.961904,19.1708011]},"properties":{"highway":"bus_stop","name":"Endeavour Society","operator":"Thane Municipal Transport","public_transport":"platform","ref":"2860"}},{"type":"Feature","geometry":{"type":"Point","coordinates":[72.9830836,19.2316556]},"properties":{"highway":"bus_stop","name":"Everest World Park","operator":"Thane Municipal Transport","public_transport":"platform","ref":"3719"}},{"type":"Feature","geometry":{"type":"Point","coordinates":[72.8403384,19.3994272]},"properties":{"highway":"bus_stop","name":"Evershine City","operator":"Thane Municipal Transport","public_transport":"platform","ref":"3475"}},{"type":"Feature","geometry":{"type":"Point","coordinates":[72.94794,19.231545]},"properties":{"highway":"bus_stop","name":"Exotica","operator":"Thane Municipal Transport","public_transport":"platform","ref":"241"}},{"type":"Feature","geometry":{"type":"Point","coordinates":[72.8510504,19.0560168]},"properties":{"highway":"bus_stop","name":"Family Court BKC","operator":"Thane Municipal Transport","public_transport":"platform","ref":"3856"}},{"type":"Feature","geometry":{"type":"Point","coordinates":[72.8460562,19.4030228]},"properties":{"highway":"bus_stop","name":"Father Wadi","operator":"Thane Municipal Transport","public_transport":"platform","ref":"3477"}},{"type":"Feature","geometry":{"type":"Point","coordinates":[72.8280577,19.4055725]},"properties":{"highway":"bus_stop","name":"Fire Station","operator":"Thane Municipal Transport","public_transport":"platform","ref":"3473"}},{"type":"Feature","geometry":{"type":"Point","coordinates":[72.9722311,19.207665]},"properties":{"highway":"bus_stop","name":"Flower Valley","operator":"Thane Municipal Transport","public_transport":"platform","ref":"22"}},{"type":"Feature","geometry":{"type":"Point","coordinates":[72.9725179,19.2076594]},"properties":{"highway":"bus_stop","name":"Flower Valley / Jupiter Hospital","operator":"Thane Municipal Transport","public_transport":"platform","ref":"1428"}},{"type":"Feature","geometry":{"type":"Point","coordinates":[72.9805897,19.2520752]},"properties":{"highway":"bus_stop","name":"Forest Avenue","operator":"Thane Municipal Transport","public_transport":"platform","ref":"96"}},{"type":"Feature","geometry":{"type":"Point","coordinates":[72.981757,19.2544485]},"properties":{"highway":"bus_stop","name":"Forest Avenue / Arcadia","operator":"Thane Municipal Transport","public_transport":"platform","ref":"89"}},{"type":"Feature","geometry":{"type":"Point","coordinates":[72.9644588,19.1889277]},"properties":{"highway":"bus_stop","name":"Forest Office","operator":"Thane Municipal Transport","public_transport":"platform","ref":"28"}},{"type":"Feature","geometry":{"type":"Point","coordinates":[72.904488,19.2847]},"properties":{"highway":"bus_stop","name":"Fountain Hotel","operator":"Thane Municipal Transport","public_transport":"platform","ref":"567"}},{"type":"Feature","geometry":{"type":"Point","coordinates":[72.9314819,19.2841789]},"properties":{"highway":"bus_stop","name":"Gaimukh","operator":"Thane Municipal Transport","public_transport":"platform","ref":"564"}},{"type":"Feature","geometry":{"type":"Point","coordinates":[72.9408036,19.2851301]},"properties":{"highway":"bus_stop","name":"Gaimukh Mandir / Jagannath Mahadev Temple","operator":"Thane Municipal Transport","public_transport":"platform","ref":"1628"}},{"type":"Feature","geometry":{"type":"Point","coordinates":[72.9257136,19.1249754]},"properties":{"highway":"bus_stop","name":"Gandhi Nagar","operator":"Thane Municipal Transport","public_transport":"platform","ref":"396"}},{"type":"Feature","geometry":{"type":"Point","coordinates":[72.8646067,19.2460916]},"properties":{"highway":"bus_stop","name":"Ganesh Nagar","operator":"Thane Municipal Transport","public_transport":"platform","ref":"1611"}},{"type":"Feature","geometry":{"type":"Point","coordinates":[72.864763,19.244507]},"properties":{"highway":"bus_stop","name":"Ganesh Nagar / Gokul Anand Hotel Borivali East","operator":"Thane Municipal Transport","public_transport":"platform","ref":"1149"}},{"type":"Feature","geometry":{"type":"Point","coordinates":[72.972361,19.184527]},"properties":{"highway":"bus_stop","name":"Gaondevi","operator":"Thane Municipal Transport","public_transport":"platform","ref":"32"}},{"type":"Feature","geometry":{"type":"Point","coordinates":[72.9723386,19.1845111]},"properties":{"highway":"bus_stop","name":"Gaondevi Mandir Kopri","operator":"Thane Municipal Transport","public_transport":"platform","ref":"1979"}},{"type":"Feature","geometry":{"type":"Point","coordinates":[72.9677063,19.2328841]},"properties":{"highway":"bus_stop","name":"Garden Est.","operator":"Thane Municipal Transport","public_transport":"platform","ref":"898"}},{"type":"Feature","geometry":{"type":"Point","coordinates":[72.9676992,19.2328845]},"properties":{"highway":"bus_stop","name":"Garden Estate","operator":"Thane Municipal Transport","public_transport":"platform","ref":"782"}},{"type":"Feature","geometry":{"type":"Point","coordinates":[72.9630501,19.2719657]},"properties":{"highway":"bus_stop","name":"Garib Nagar","operator":"Thane Municipal Transport","public_transport":"platform","ref":"5"}},{"type":"Feature","geometry":{"type":"Point","coordinates":[72.8698787,19.1185236]},"properties":{"highway":"bus_stop","name":"Gautam Nagar","operator":"Thane Municipal Transport","public_transport":"platform","ref":"3768"}},{"type":"Feature","geometry":{"type":"Point","coordinates":[72.9617686,19.1735074]},"properties":{"highway":"bus_stop","name":"Gavanpada","operator":"Thane Municipal Transport","public_transport":"platform","ref":"1154"}},{"type":"Feature","geometry":{"type":"Point","coordinates":[72.9746802,19.1887765]},"properties":{"highway":"bus_stop","name":"Gavdevi Mandir Thane (w)","operator":"Thane Municipal Transport","public_transport":"platform","ref":"926"}},{"type":"Feature","geometry":{"type":"Point","coordinates":[72.958628,19.224854]},"properties":{"highway":"bus_stop","name":"Gawand Baug","operator":"Thane Municipal Transport","public_transport":"platform","ref":"402"}},{"type":"Feature","geometry":{"type":"Point","coordinates":[72.8675727,19.2517932]},"properties":{"highway":"bus_stop","name":"Ghartan Pada","operator":"Thane Municipal Transport","public_transport":"platform","ref":"1612"}},{"type":"Feature","geometry":{"type":"Point","coordinates":[72.893254,19.2868123]},"properties":{"highway":"bus_stop","name":"Ghodbunder Village","operator":"Thane Municipal Transport","public_transport":"platform","ref":"569"}},{"type":"Feature","geometry":{"type":"Point","coordinates":[73.01176833,19.204125]},"properties":{"highway":"bus_stop","name":"Gholai Nagar","operator":"Thane Municipal Transport","public_transport":"platform","ref":"3178"}},{"type":"Feature","geometry":{"type":"Point","coordinates":[72.966106,19.219207]},"properties":{"highway":"bus_stop","name":"Glaxo Company","operator":"Thane Municipal Transport","public_transport":"platform","ref":"397"}},{"type":"Feature","geometry":{"type":"Point","coordinates":[72.9290137,19.1011857]},"properties":{"highway":"bus_stop","name":"Godrej Boyce","operator":"Thane Municipal Transport","public_transport":"platform","ref":"4006"}},{"type":"Feature","geometry":{"type":"Point","coordinates":[72.9257536,19.0931358]},"properties":{"highway":"bus_stop","name":"Godrej Soaps","operator":"Thane Municipal Transport","public_transport":"platform","ref":"3870"}},{"type":"Feature","geometry":{"type":"Point","coordinates":[72.8430089,19.4003676]},"properties":{"highway":"bus_stop","name":"Gokhivare Talav Vasai","operator":"Thane Municipal Transport","public_transport":"platform","ref":"3476"}},{"type":"Feature","geometry":{"type":"Point","coordinates":[72.8643204,19.244007]},"properties":{"highway":"bus_stop","name":"Gokul Anand Hotel Borivali East","operator":"Thane Municipal Transport","public_transport":"platform","ref":"1047"}},{"type":"Feature","geometry":{"type":"Point","coordinates":[72.9770173,19.2084195]},"properties":{"highway":"bus_stop","name":"Gokul Nagar","operator":"Thane Municipal Transport","public_transport":"platform","ref":"331"}},{"type":"Feature","geometry":{"type":"Point","coordinates":[72.9770209,19.2088866]},"properties":{"highway":"bus_stop","name":"Gokulngar","operator":"Thane Municipal Transport","public_transport":"platform","ref":"887"}},{"type":"Feature","geometry":{"type":"Point","coordinates":[72.9839616,19.2571473]},"properties":{"highway":"bus_stop","name":"Gold Craft","operator":"Thane Municipal Transport","public_transport":"platform","ref":"3382"}},{"type":"Feature","geometry":{"type":"Point","coordinates":[72.983968,19.257143]},"properties":{"highway":"bus_stop","name":"Gold Croft","operator":"Thane Municipal Transport","public_transport":"platform","ref":"3385"}},{"type":"Feature","geometry":{"type":"Point","coordinates":[72.872971,19.2617898]},"properties":{"highway":"bus_stop","name":"Golden Chemicals","operator":"Thane Municipal Transport","public_transport":"platform","ref":"1050"}},{"type":"Feature","geometry":{"type":"Point","coordinates":[72.8737912,19.262133]},"properties":{"highway":"bus_stop","name":"Golden Chemicals / Thakur Mall","operator":"Thane Municipal Transport","public_transport":"platform","ref":"1733"}},{"type":"Feature","geometry":{"type":"Point","coordinates":[72.977495,19.26342]},"properties":{"highway":"bus_stop","name":"Gondhale Wadi","operator":"Thane Municipal Transport","public_transport":"platform","ref":"1873"}},{"type":"Feature","geometry":{"type":"Point","coordinates":[73.0642368,19.2976085]},"properties":{"highway":"bus_stop","name":"Gopal Nagar","operator":"Thane Municipal Transport","public_transport":"platform","ref":"1409"}},{"type":"Feature","geometry":{"type":"Point","coordinates":[72.8582117,19.1656378]},"properties":{"highway":"bus_stop","name":"Goregaon Check Naka","operator":"Thane Municipal Transport","public_transport":"platform","ref":"2560"}},{"type":"Feature","geometry":{"type":"Point","coordinates":[72.8692422,19.1395168]},"properties":{"highway":"bus_stop","name":"Green Fields","operator":"Thane Municipal Transport","public_transport":"platform","ref":"3955"}},{"type":"Feature","geometry":{"type":"Point","coordinates":[72.8787623,19.2784411]},"properties":{"highway":"bus_stop","name":"Green Park / Pleasant Park","operator":"Thane Municipal Transport","public_transport":"platform","ref":"573"}},{"type":"Feature","geometry":{"type":"Point","coordinates":[72.8556345,19.1205272]},"properties":{"highway":"bus_stop","name":"Gundavali","operator":"Thane Municipal Transport","public_transport":"platform","ref":"2564"}},{"type":"Feature","geometry":{"type":"Point","coordinates":[72.9644356,19.1957706]},"properties":{"highway":"bus_stop","name":"Gurukul Society","operator":"Thane Municipal Transport","public_transport":"platform","ref":"1798"}},{"type":"Feature","geometry":{"type":"Point","coordinates":[72.9505489,19.1786076]},"properties":{"highway":"bus_stop","name":"Gyan Sarita","operator":"Thane Municipal Transport","public_transport":"platform","ref":"2523"}},{"type":"Feature","geometry":{"type":"Point","coordinates":[72.949415,19.1786106]},"properties":{"highway":"bus_stop","name":"Gyan Sarita Sada","operator":"Thane Municipal Transport","public_transport":"platform","ref":"156"}},{"type":"Feature","geometry":{"type":"Point","coordinates":[72.9575056,19.2019485]},"properties":{"highway":"bus_stop","name":"Gyaneshvar Nagar","operator":"Thane Municipal Transport","public_transport":"platform","ref":"1672"}},{"type":"Feature","geometry":{"type":"Point","coordinates":[72.9647143,19.1842671]},"properties":{"highway":"bus_stop","name":"Gynan Sadhana College","operator":"Thane Municipal Transport","public_transport":"platform","ref":"1101"}},{"type":"Feature","geometry":{"type":"Point","coordinates":[72.96525,19.184261]},"properties":{"highway":"bus_stop","name":"Gynansadhana College","operator":"Thane Municipal Transport","public_transport":"platform","ref":"1093"}},{"type":"Feature","geometry":{"type":"Point","coordinates":[72.9592303,19.1949886]},"properties":{"highway":"bus_stop","name":"Hajuri","operator":"Thane Municipal Transport","public_transport":"platform","ref":"2276"}},{"type":"Feature","geometry":{"type":"Point","coordinates":[72.9598052,19.1932373]},"properties":{"highway":"bus_stop","name":"Hajuri Dargah","operator":"Thane Municipal Transport","public_transport":"platform","ref":"2275"}},{"type":"Feature","geometry":{"type":"Point","coordinates":[73.0167002,19.24141]},"properties":{"highway":"bus_stop","name":"Hanuman Complex","operator":"Thane Municipal Transport","public_transport":"platform","ref":"1355"}},{"type":"Feature","geometry":{"type":"Point","coordinates":[72.8536455,19.1051671]},"properties":{"highway":"bus_stop","name":"Hanuman Road","operator":"Thane Municipal Transport","public_transport":"platform","ref":"2566"}},{"type":"Feature","geometry":{"type":"Point","coordinates":[72.977005,19.212952]},"properties":{"highway":"bus_stop","name":"Hardas Nagar","operator":"Thane Municipal Transport","public_transport":"platform","ref":"1108"}},{"type":"Feature","geometry":{"type":"Point","coordinates":[72.9661077,19.1904629]},"properties":{"highway":"bus_stop","name":"Hari Nivas","operator":"Thane Municipal Transport","public_transport":"platform","ref":"29"}},{"type":"Feature","geometry":{"type":"Point","coordinates":[72.9674337,19.1903285]},"properties":{"highway":"bus_stop","name":"Hari Niwas","operator":"Thane Municipal Transport","public_transport":"platform","ref":"120"}},{"type":"Feature","geometry":{"type":"Point","coordinates":[72.9676921,19.1904625]},"properties":{"highway":"bus_stop","name":"Harinivas","operator":"Thane Municipal Transport","public_transport":"platform","ref":"880"}},{"type":"Feature","geometry":{"type":"Point","coordinates":[72.8764973,19.279845]},"properties":{"highway":"bus_stop","name":"Hatkesh","operator":"Thane Municipal Transport","public_transport":"platform","ref":"574"}},{"type":"Feature","geometry":{"type":"Point","coordinates":[72.9599848,19.2624347]},"properties":{"highway":"bus_stop","name":"Havre City / Borivade Gaon","operator":"Thane Municipal Transport","public_transport":"platform","ref":"3080"}},{"type":"Feature","geometry":{"type":"Point","coordinates":[72.9599772,19.2624355]},"properties":{"highway":"bus_stop","name":"Hawre City / Boriwade Gaon","operator":"Thane Municipal Transport","public_transport":"platform","ref":"3131"}},{"type":"Feature","geometry":{"type":"Point","coordinates":[72.9645844,19.2226341]},"properties":{"highway":"bus_stop","name":"HDFC Bank Siddhachal","operator":"Thane Municipal Transport","public_transport":"platform","ref":"754"}},{"type":"Feature","geometry":{"type":"Point","coordinates":[72.9911224,19.2176534]},"properties":{"highway":"bus_stop","name":"Highland Haven","operator":"Thane Municipal Transport","public_transport":"platform","ref":"942"}},{"type":"Feature","geometry":{"type":"Point","coordinates":[72.98219,19.22211]},"properties":{"highway":"bus_stop","name":"Highland Park","operator":"Thane Municipal Transport","public_transport":"platform","ref":"482"}},{"type":"Feature","geometry":{"type":"Point","coordinates":[72.9631799,19.1886333]},"properties":{"highway":"bus_stop","name":"Highway Darshan","operator":"Thane Municipal Transport","public_transport":"platform","ref":"27"}},{"type":"Feature","geometry":{"type":"Point","coordinates":[72.9631602,19.187638]},"properties":{"highway":"bus_stop","name":"Highway Darshan Society","operator":"Thane Municipal Transport","public_transport":"platform","ref":"738"}},{"type":"Feature","geometry":{"type":"Point","coordinates":[72.9660459,19.2346985]},"properties":{"highway":"bus_stop","name":"Hill Garden","operator":"Thane Municipal Transport","public_transport":"platform","ref":"780"}},{"type":"Feature","geometry":{"type":"Point","coordinates":[72.9065613,19.1202008]},"properties":{"highway":"bus_stop","name":"Hiranandani","operator":"Thane Municipal Transport","public_transport":"platform","ref":"3779"}},{"type":"Feature","geometry":{"type":"Point","coordinates":[72.9781819,19.2574678]},"properties":{"highway":"bus_stop","name":"Hiranandani Garden","operator":"Thane Municipal Transport","public_transport":"platform","ref":"91"}},{"type":"Feature","geometry":{"type":"Point","coordinates":[72.9695615,19.2279324]},"properties":{"highway":"bus_stop","name":"Hiranandani Meadows","operator":"Thane Municipal Transport","public_transport":"platform","ref":"960"}},{"type":"Feature","geometry":{"type":"Point","coordinates":[72.9782186,19.2575023]},"properties":{"highway":"bus_stop","name":"Hirandani Garden","operator":"Thane Municipal Transport","public_transport":"platform","ref":"94"}},{"type":"Feature","geometry":{"type":"Point","coordinates":[72.9787172,19.2034267]},"properties":{"highway":"bus_stop","name":"Holly Cross","operator":"Thane Municipal Transport","public_transport":"platform","ref":"933"}},{"type":"Feature","geometry":{"type":"Point","coordinates":[72.9782634,19.203085]},"properties":{"highway":"bus_stop","name":"Holly Cross School","operator":"Thane Municipal Transport","public_transport":"platform","ref":"807"}},{"type":"Feature","geometry":{"type":"Point","coordinates":[72.978123,19.2031111]},"properties":{"highway":"bus_stop","name":"Holy Cross School","operator":"Thane Municipal Transport","public_transport":"platform","ref":"376"}},{"type":"Feature","geometry":{"type":"Point","coordinates":[73.0324527,19.2644072]},"properties":{"highway":"bus_stop","name":"Holy Mary High School","operator":"Thane Municipal Transport","public_transport":"platform","ref":"1363"}},{"type":"Feature","geometry":{"type":"Point","coordinates":[72.9739778,19.2240921]},"properties":{"highway":"bus_stop","name":"Hyde Park","operator":"Thane Municipal Transport","public_transport":"platform","ref":"545"}},{"type":"Feature","geometry":{"type":"Point","coordinates":[72.97715833,19.22505667]},"properties":{"highway":"bus_stop","name":"Hyder Park Society","operator":"Thane Municipal Transport","public_transport":"platform","ref":"1912"}},{"type":"Feature","geometry":{"type":"Point","coordinates":[72.8873134,19.1284035]},"properties":{"highway":"bus_stop","name":"I.E.S. High School","operator":"Thane Municipal Transport","public_transport":"platform","ref":"3774"}},{"type":"Feature","geometry":{"type":"Point","coordinates":[72.9168228,19.1253223]},"properties":{"highway":"bus_stop","name":"I.I.T. Main Gate","operator":"Thane Municipal Transport","public_transport":"platform","ref":"3782"}},{"type":"Feature","geometry":{"type":"Point","coordinates":[72.9190389,19.1273903]},"properties":{"highway":"bus_stop","name":"I.I.T. Market","operator":"Thane Municipal Transport","public_transport":"platform","ref":"3783"}},{"type":"Feature","geometry":{"type":"Point","coordinates":[72.968403,19.1872045]},"properties":{"highway":"bus_stop","name":"Ice Factory","operator":"Thane Municipal Transport","public_transport":"platform","ref":"30"}},{"type":"Feature","geometry":{"type":"Point","coordinates":[72.8614105,19.0646073]},"properties":{"highway":"bus_stop","name":"ICICI Bank BKC","operator":"Thane Municipal Transport","public_transport":"platform","ref":"3859"}},{"type":"Feature","geometry":{"type":"Point","coordinates":[72.947311,19.284241]},"properties":{"highway":"bus_stop","name":"Imperial Sqaure","operator":"Thane Municipal Transport","public_transport":"platform","ref":"1132"}},{"type":"Feature","geometry":{"type":"Point","coordinates":[72.947642,19.284426]},"properties":{"highway":"bus_stop","name":"Imperial Square","operator":"Thane Municipal Transport","public_transport":"platform","ref":"1063"}},{"type":"Feature","geometry":{"type":"Point","coordinates":[72.9646367,19.187983]},"properties":{"highway":"bus_stop","name":"Income Tax Office","operator":"Thane Municipal Transport","public_transport":"platform","ref":"38"}},{"type":"Feature","geometry":{"type":"Point","coordinates":[72.9498413,19.20329667]},"properties":{"highway":"bus_stop","name":"Indira Nagar","operator":"Thane Municipal Transport","public_transport":"platform","ref":"157"}},{"type":"Feature","geometry":{"type":"Point","coordinates":[72.8548448,19.1345304]},"properties":{"highway":"bus_stop","name":"Ismail Yusuf College","operator":"Thane Municipal Transport","public_transport":"platform","ref":"2562"}},{"type":"Feature","geometry":{"type":"Point","coordinates":[72.9430927,19.1953687]},"properties":{"highway":"bus_stop","name":"ITI Circle","operator":"Thane Municipal Transport","public_transport":"platform","ref":"3148"}},{"type":"Feature","geometry":{"type":"Point","coordinates":[72.9430932,19.1953599]},"properties":{"highway":"bus_stop","name":"ITI Thane","operator":"Thane Municipal Transport","public_transport":"platform","ref":"2532"}},{"type":"Feature","geometry":{"type":"Point","coordinates":[72.8688327,19.111498]},"properties":{"highway":"bus_stop","name":"J B Nagar","operator":"Thane Municipal Transport","public_transport":"platform","ref":"3763"}},{"type":"Feature","geometry":{"type":"Point","coordinates":[72.964142,19.20741]},"properties":{"highway":"bus_stop","name":"J K Gram","operator":"Thane Municipal Transport","public_transport":"platform","ref":"130"}},{"type":"Feature","geometry":{"type":"Point","coordinates":[72.8318907,18.9627732]},"properties":{"highway":"bus_stop","name":"J.J. Hospital / Dr. M. Iqbal Chowk","operator":"Thane Municipal Transport","public_transport":"platform","ref":"3996"}},{"type":"Feature","geometry":{"type":"Point","coordinates":[72.97671,19.193321]},"properties":{"highway":"bus_stop","name":"Jablinaka","operator":"Thane Municipal Transport","public_transport":"platform","ref":"956"}},{"type":"Feature","geometry":{"type":"Point","coordinates":[72.93341,19.284732]},"properties":{"highway":"bus_stop","name":"Jagannath Mahadev Temple","operator":"Thane Municipal Transport","public_transport":"platform","ref":"563"}},{"type":"Feature","geometry":{"type":"Point","coordinates":[72.9536774,19.2019034]},"properties":{"highway":"bus_stop","name":"Jai Bhawani Nagar","operator":"Thane Municipal Transport","public_transport":"platform","ref":"187"}},{"type":"Feature","geometry":{"type":"Point","coordinates":[73.0643403,19.2977948]},"properties":{"highway":"bus_stop","name":"Jakat Naka","operator":"Thane Municipal Transport","public_transport":"platform","ref":"1408"}},{"type":"Feature","geometry":{"type":"Point","coordinates":[73.0234517,19.1720223]},"properties":{"highway":"bus_stop","name":"Jalim Kura Mandir / Kismat Colony","operator":"Thane Municipal Transport","public_transport":"platform","ref":"2752"}},{"type":"Feature","geometry":{"type":"Point","coordinates":[72.97668,19.193687]},"properties":{"highway":"bus_stop","name":"Jambhali Naka","operator":"Thane Municipal Transport","public_transport":"platform","ref":"138"}},{"type":"Feature","geometry":{"type":"Point","coordinates":[72.97677,19.19367333]},"properties":{"highway":"bus_stop","name":"Jambli Naka","operator":"Thane Municipal Transport","public_transport":"platform","ref":"1897"}},{"type":"Feature","geometry":{"type":"Point","coordinates":[72.8706171,19.280123]},"properties":{"highway":"bus_stop","name":"Jangid Circle","operator":"Thane Municipal Transport","public_transport":"platform","ref":"576"}},{"type":"Feature","geometry":{"type":"Point","coordinates":[72.9701459,19.2202499]},"properties":{"highway":"bus_stop","name":"Jawahar Nagar","operator":"Thane Municipal Transport","public_transport":"platform","ref":"437"}},{"type":"Feature","geometry":{"type":"Point","coordinates":[72.937611,19.1241094]},"properties":{"highway":"bus_stop","name":"Jogeshwari Vikroli Link Road (JVLR)","operator":"Thane Municipal Transport","public_transport":"platform","ref":"3786"}},{"type":"Feature","geometry":{"type":"Point","coordinates":[72.9610747,19.1866648]},"properties":{"highway":"bus_stop","name":"Johnson Company","operator":"Thane Municipal Transport","public_transport":"platform","ref":"276"}},{"type":"Feature","geometry":{"type":"Point","coordinates":[72.9707751,19.2060586]},"properties":{"highway":"bus_stop","name":"Jupiter Hospital","operator":"Thane Municipal Transport","public_transport":"platform","ref":"23"}},{"type":"Feature","geometry":{"type":"Point","coordinates":[72.9953232,19.1986825]},"properties":{"highway":"bus_stop","name":"Jyotiba Phule Nagar / Sukur Park","operator":"Thane Municipal Transport","public_transport":"platform","ref":"292"}},{"type":"Feature","geometry":{"type":"Point","coordinates":[72.8281619,18.9278691]},"properties":{"highway":"bus_stop","name":"K.C. Mahavidyalaya","operator":"Thane Municipal Transport","public_transport":"platform","ref":"4041"}},{"type":"Feature","geometry":{"type":"Point","coordinates":[72.921547,19.27865]},"properties":{"highway":"bus_stop","name":"Kajupada","operator":"Thane Municipal Transport","public_transport":"platform","ref":"565"}},{"type":"Feature","geometry":{"type":"Point","coordinates":[72.9604217,19.1974456]},"properties":{"highway":"bus_stop","name":"Kajuwadi","operator":"Thane Municipal Transport","public_transport":"platform","ref":"2300"}},{"type":"Feature","geometry":{"type":"Point","coordinates":[73.0259529,19.1680986]},"properties":{"highway":"bus_stop","name":"Kaka Nagar","operator":"Thane Municipal Transport","public_transport":"platform","ref":"2742"}},{"type":"Feature","geometry":{"type":"Point","coordinates":[72.8467723,19.0532543]},"properties":{"highway":"bus_stop","name":"Kalanagar Highway","operator":"Thane Municipal Transport","public_transport":"platform","ref":"2571"}},{"type":"Feature","geometry":{"type":"Point","coordinates":[73.0177528,19.2464783]},"properties":{"highway":"bus_stop","name":"Kalher","operator":"Thane Municipal Transport","public_transport":"platform","ref":"1357"}},{"type":"Feature","geometry":{"type":"Point","coordinates":[73.0180152,19.25116]},"properties":{"highway":"bus_stop","name":"Kalher Pipe Line","operator":"Thane Municipal Transport","public_transport":"platform","ref":"3024"}},{"type":"Feature","geometry":{"type":"Point","coordinates":[72.963227,19.191593]},"properties":{"highway":"bus_stop","name":"Kalpataru","operator":"Thane Municipal Transport","public_transport":"platform","ref":"1393"}},{"type":"Feature","geometry":{"type":"Point","coordinates":[72.8676573,19.1397126]},"properties":{"highway":"bus_stop","name":"Kalpataru Estate","operator":"Thane Municipal Transport","public_transport":"platform","ref":"3956"}},{"type":"Feature","geometry":{"type":"Point","coordinates":[73.0303965,19.1592509]},"properties":{"highway":"bus_stop","name":"Kalsekar College","operator":"Thane Municipal Transport","public_transport":"platform","ref":"2381"}},{"type":"Feature","geometry":{"type":"Point","coordinates":[73.0291585,19.1615901]},"properties":{"highway":"bus_stop","name":"Kalsekar College / K.V.K.","operator":"Thane Municipal Transport","public_transport":"platform","ref":"2380"}},{"type":"Feature","geometry":{"type":"Point","coordinates":[72.9881316,19.1913122]},"properties":{"highway":"bus_stop","name":"Kalwa Depot","operator":"Thane Municipal Transport","public_transport":"platform","ref":"2434"}},{"type":"Feature","geometry":{"type":"Point","coordinates":[72.9870879,19.195208]},"properties":{"highway":"bus_stop","name":"Kalwa Naka","operator":"Thane Municipal Transport","public_transport":"platform","ref":"289"}},{"type":"Feature","geometry":{"type":"Point","coordinates":[72.998855,19.19635333]},"properties":{"highway":"bus_stop","name":"Kalwa Railway Station","operator":"Thane Municipal Transport","public_transport":"platform","ref":"3173"}},{"type":"Feature","geometry":{"type":"Point","coordinates":[73.082953,19.2696985]},"properties":{"highway":"bus_stop","name":"Kalyan Bypass","operator":"Thane Municipal Transport","public_transport":"platform","ref":"1415"}},{"type":"Feature","geometry":{"type":"Point","coordinates":[73.06349,19.29622]},"properties":{"highway":"bus_stop","name":"Kalyan Naka","operator":"Thane Municipal Transport","public_transport":"platform","ref":"1464"}},{"type":"Feature","geometry":{"type":"Point","coordinates":[73.0471665,19.1425706]},"properties":{"highway":"bus_stop","name":"Kalyan Phata","operator":"Thane Municipal Transport","public_transport":"platform","ref":"3608"}},{"type":"Feature","geometry":{"type":"Point","coordinates":[72.9452708,19.179015]},"properties":{"highway":"bus_stop","name":"Kamagar Hospital Mulund","operator":"Thane Municipal Transport","public_transport":"platform","ref":"1331"}},{"type":"Feature","geometry":{"type":"Point","coordinates":[72.8742683,19.1336385]},"properties":{"highway":"bus_stop","name":"Kamal Amrohi Studio","operator":"Thane Municipal Transport","public_transport":"platform","ref":"3953"}},{"type":"Feature","geometry":{"type":"Point","coordinates":[72.9452706,19.1792006]},"properties":{"highway":"bus_stop","name":"Kamgar Hospital","operator":"Thane Municipal Transport","public_transport":"platform","ref":"159"}},{"type":"Feature","geometry":{"type":"Point","coordinates":[72.9452624,19.1791904]},"properties":{"highway":"bus_stop","name":"Kamgar Hospital Mulund","operator":"Thane Municipal Transport","public_transport":"platform","ref":"989"}},{"type":"Feature","geometry":{"type":"Point","coordinates":[72.9539819,19.2035738]},"properties":{"highway":"bus_stop","name":"Kamgar Hospital Thane","operator":"Thane Municipal Transport","public_transport":"platform","ref":"1167"}},{"type":"Feature","geometry":{"type":"Point","coordinates":[72.983115,19.197158]},"properties":{"highway":"bus_stop","name":"Kanhaji Agrh Chowk","operator":"Thane Municipal Transport","public_transport":"platform","ref":"288"}},{"type":"Feature","geometry":{"type":"Point","coordinates":[72.9415139,19.1299555]},"properties":{"highway":"bus_stop","name":"Kanjur Marg Village","operator":"Thane Municipal Transport","public_transport":"platform","ref":"3787"}},{"type":"Feature","geometry":{"type":"Point","coordinates":[72.9352717,19.116474]},"properties":{"highway":"bus_stop","name":"Kannamwar Nagar","operator":"Thane Municipal Transport","public_transport":"platform","ref":"3872"}},{"type":"Feature","geometry":{"type":"Point","coordinates":[72.872478,19.0750248]},"properties":{"highway":"bus_stop","name":"Kapadia Nagar","operator":"Thane Municipal Transport","public_transport":"platform","ref":"3864"}},{"type":"Feature","geometry":{"type":"Point","coordinates":[72.9775209,19.2175435]},"properties":{"highway":"bus_stop","name":"Kapurbavdi","operator":"Thane Municipal Transport","public_transport":"platform","ref":"891"}},{"type":"Feature","geometry":{"type":"Point","coordinates":[72.977518,19.217438]},"properties":{"highway":"bus_stop","name":"Kapurbawdi","operator":"Thane Municipal Transport","public_transport":"platform","ref":"20"}},{"type":"Feature","geometry":{"type":"Point","coordinates":[72.9688165,19.2752223]},"properties":{"highway":"bus_stop","name":"Kasarvadavali","operator":"Thane Municipal Transport","public_transport":"platform","ref":"352"}},{"type":"Feature","geometry":{"type":"Point","coordinates":[72.9666204,19.2709643]},"properties":{"highway":"bus_stop","name":"Kasarvadavali / Sainik Shala","operator":"Thane Municipal Transport","public_transport":"platform","ref":"350"}},{"type":"Feature","geometry":{"type":"Point","coordinates":[72.965325,19.269245]},"properties":{"highway":"bus_stop","name":"Kasarvadavali Naka","operator":"Thane Municipal Transport","public_transport":"platform","ref":"349"}},{"type":"Feature","geometry":{"type":"Point","coordinates":[73.0147329,19.2362347]},"properties":{"highway":"bus_stop","name":"Kasheli","operator":"Thane Municipal Transport","public_transport":"platform","ref":"3019"}},{"type":"Feature","geometry":{"type":"Point","coordinates":[73.0147396,19.23613]},"properties":{"highway":"bus_stop","name":"Kasheli Gaon","operator":"Thane Municipal Transport","public_transport":"platform","ref":"1354"}},{"type":"Feature","geometry":{"type":"Point","coordinates":[73.012248,19.2343874]},"properties":{"highway":"bus_stop","name":"Kasheli Toll Naka","operator":"Thane Municipal Transport","public_transport":"platform","ref":"1353"}},{"type":"Feature","geometry":{"type":"Point","coordinates":[72.8851334,19.273847]},"properties":{"highway":"bus_stop","name":"Kashi Village","operator":"Thane Municipal Transport","public_transport":"platform","ref":"571"}},{"type":"Feature","geometry":{"type":"Point","coordinates":[72.882288,19.2714734]},"properties":{"highway":"bus_stop","name":"Kashimira","operator":"Thane Municipal Transport","public_transport":"platform","ref":"572"}},{"type":"Feature","geometry":{"type":"Point","coordinates":[72.9580158,19.1857279]},"properties":{"highway":"bus_stop","name":"Kashish Park","operator":"Thane Municipal Transport","public_transport":"platform","ref":"275"}},{"type":"Feature","geometry":{"type":"Point","coordinates":[73.0270827,19.1664979]},"properties":{"highway":"bus_stop","name":"Kausa","operator":"Thane Municipal Transport","public_transport":"platform","ref":"2743"}},{"type":"Feature","geometry":{"type":"Point","coordinates":[73.0284303,19.1645503]},"properties":{"highway":"bus_stop","name":"Kausa Jama Masjid","operator":"Thane Municipal Transport","public_transport":"platform","ref":"2744"}},{"type":"Feature","geometry":{"type":"Point","coordinates":[72.982247,19.2282064]},"properties":{"highway":"bus_stop","name":"Kavyadhara / Siddheshwar Garden","operator":"Thane Municipal Transport","public_transport":"platform","ref":"832"}},{"type":"Feature","geometry":{"type":"Point","coordinates":[72.9565895,19.1627347]},"properties":{"highway":"bus_stop","name":"Kelkar College","operator":"Thane Municipal Transport","public_transport":"platform","ref":"1153"}},{"type":"Feature","geometry":{"type":"Point","coordinates":[72.834379,18.9377054]},"properties":{"highway":"bus_stop","name":"Khadi Bhandar","operator":"Thane Municipal Transport","public_transport":"platform","ref":"4038"}},{"type":"Feature","geometry":{"type":"Point","coordinates":[73.03001731,19.16046347]},"properties":{"highway":"bus_stop","name":"Khalsekar","operator":"Thane Municipal Transport","public_transport":"platform","ref":"2745"}},{"type":"Feature","geometry":{"type":"Point","coordinates":[73.0283704,19.2604115]},"properties":{"highway":"bus_stop","name":"Khandagale Estate","operator":"Thane Municipal Transport","public_transport":"platform","ref":"1361"}},{"type":"Feature","geometry":{"type":"Point","coordinates":[72.954367,19.216722]},"properties":{"highway":"bus_stop","name":"Khandelwal","operator":"Thane Municipal Transport","public_transport":"platform","ref":"237"}},{"type":"Feature","geometry":{"type":"Point","coordinates":[72.9534712,19.2172614]},"properties":{"highway":"bus_stop","name":"Khandelwal Estate","operator":"Thane Municipal Transport","public_transport":"platform","ref":"967"}},{"type":"Feature","geometry":{"type":"Point","coordinates":[72.999302,19.2052913]},"properties":{"highway":"bus_stop","name":"Kharegaon","operator":"Thane Municipal Transport","public_transport":"platform","ref":"296"}},{"type":"Feature","geometry":{"type":"Point","coordinates":[73.0038331,19.2005304]},"properties":{"highway":"bus_stop","name":"Kharegaon Fatak","operator":"Thane Municipal Transport","public_transport":"platform","ref":"3174"}},{"type":"Feature","geometry":{"type":"Point","coordinates":[73.0013554,19.2017989]},"properties":{"highway":"bus_stop","name":"Kharegaon Naka","operator":"Thane Municipal Transport","public_transport":"platform","ref":"294"}},{"type":"Feature","geometry":{"type":"Point","coordinates":[73.0015137,19.2031833]},"properties":{"highway":"bus_stop","name":"Kharegaon Pakhadi","operator":"Thane Municipal Transport","public_transport":"platform","ref":"295"}},{"type":"Feature","geometry":{"type":"Point","coordinates":[72.9697749,19.2320547]},"properties":{"highway":"bus_stop","name":"Khevra Cercal","operator":"Thane Municipal Transport","public_transport":"platform","ref":"897"}},{"type":"Feature","geometry":{"type":"Point","coordinates":[72.9697738,19.2320542]},"properties":{"highway":"bus_stop","name":"Khewra Circle","operator":"Thane Municipal Transport","public_transport":"platform","ref":"783"}},{"type":"Feature","geometry":{"type":"Point","coordinates":[73.0640759,19.15658]},"properties":{"highway":"bus_stop","name":"Khidkali Temple","operator":"Thane Municipal Transport","public_transport":"platform","ref":"3604"}},{"type":"Feature","geometry":{"type":"Point","coordinates":[73.0674254,19.158929]},"properties":{"highway":"bus_stop","name":"Khirkali","operator":"Thane Municipal Transport","public_transport":"platform","ref":"3603"}},{"type":"Feature","geometry":{"type":"Point","coordinates":[72.848952,19.0196231]},"properties":{"highway":"bus_stop","name":"Khodadad Circle","operator":"Thane Municipal Transport","public_transport":"platform","ref":"3999"}},{"type":"Feature","geometry":{"type":"Point","coordinates":[72.971685,19.2028723]},"properties":{"highway":"bus_stop","name":"Khopat","operator":"Thane Municipal Transport","public_transport":"platform","ref":"133"}},{"type":"Feature","geometry":{"type":"Point","coordinates":[72.9732762,19.2006076]},"properties":{"highway":"bus_stop","name":"Khopat S.T. Workshop","operator":"Thane Municipal Transport","public_transport":"platform","ref":"471"}},{"type":"Feature","geometry":{"type":"Point","coordinates":[72.9043072,19.3020694]},"properties":{"highway":"bus_stop","name":"Kinara Dhaba","operator":"Thane Municipal Transport","public_transport":"platform","ref":"3494"}},{"type":"Feature","geometry":{"type":"Point","coordinates":[72.94936,19.1896228]},"properties":{"highway":"bus_stop","name":"Kisan Nagar","operator":"Thane Municipal Transport","public_transport":"platform","ref":"270"}},{"type":"Feature","geometry":{"type":"Point","coordinates":[73.023455,19.1719916]},"properties":{"highway":"bus_stop","name":"Kismat Colony","operator":"Thane Municipal Transport","public_transport":"platform","ref":"2376"}},{"type":"Feature","geometry":{"type":"Point","coordinates":[72.9972693,19.2256458]},"properties":{"highway":"bus_stop","name":"KMS / N G Regency","operator":"Thane Municipal Transport","public_transport":"platform","ref":"4056"}},{"type":"Feature","geometry":{"type":"Point","coordinates":[72.9582459,19.2215134]},"properties":{"highway":"bus_stop","name":"Kokanipada","operator":"Thane Municipal Transport","public_transport":"platform","ref":"708"}},{"type":"Feature","geometry":{"type":"Point","coordinates":[72.957842,19.223205]},"properties":{"highway":"bus_stop","name":"Kokanipada (Pokharan 2)","operator":"Thane Municipal Transport","public_transport":"platform","ref":"401"}},{"type":"Feature","geometry":{"type":"Point","coordinates":[72.9653875,19.233616]},"properties":{"highway":"bus_stop","name":"Koknipada","operator":"Thane Municipal Transport","public_transport":"platform","ref":"899"}},{"type":"Feature","geometry":{"type":"Point","coordinates":[72.9771587,19.2040609]},"properties":{"highway":"bus_stop","name":"Kolbad","operator":"Thane Municipal Transport","public_transport":"platform","ref":"473"}},{"type":"Feature","geometry":{"type":"Point","coordinates":[72.9908244,19.239106]},"properties":{"highway":"bus_stop","name":"Kolshet","operator":"Thane Municipal Transport","public_transport":"platform","ref":"1210"}},{"type":"Feature","geometry":{"type":"Point","coordinates":[72.9907624,19.2387884]},"properties":{"highway":"bus_stop","name":"Kolshet Gaon","operator":"Thane Municipal Transport","public_transport":"platform","ref":"826"}},{"type":"Feature","geometry":{"type":"Point","coordinates":[72.9941863,19.2408257]},"properties":{"highway":"bus_stop","name":"Kolshet Trichapada","operator":"Thane Municipal Transport","public_transport":"platform","ref":"824"}},{"type":"Feature","geometry":{"type":"Point","coordinates":[73.0211673,19.2526815]},"properties":{"highway":"bus_stop","name":"Kopar","operator":"Thane Municipal Transport","public_transport":"platform","ref":"1359"}},{"type":"Feature","geometry":{"type":"Point","coordinates":[72.9612836,19.2091933]},"properties":{"highway":"bus_stop","name":"Koras Company","operator":"Thane Municipal Transport","public_transport":"platform","ref":"1172"}},{"type":"Feature","geometry":{"type":"Point","coordinates":[72.9612848,19.20921]},"properties":{"highway":"bus_stop","name":"Kores Nakshtra","operator":"Thane Municipal Transport","public_transport":"platform","ref":"974"}},{"type":"Feature","geometry":{"type":"Point","coordinates":[72.9656891,19.2016665]},"properties":{"highway":"bus_stop","name":"Korum Mall","operator":"Thane Municipal Transport","public_transport":"platform","ref":"1342"}},{"type":"Feature","geometry":{"type":"Point","coordinates":[73.026919,19.1664791]},"properties":{"highway":"bus_stop","name":"Kousa","operator":"Thane Municipal Transport","public_transport":"platform","ref":"2750"}},{"type":"Feature","geometry":{"type":"Point","coordinates":[73.0269189,19.1664794]},"properties":{"highway":"bus_stop","name":"Kousa Gaon","operator":"Thane Municipal Transport","public_transport":"platform","ref":"2378"}},{"type":"Feature","geometry":{"type":"Point","coordinates":[73.028333,19.1643098]},"properties":{"highway":"bus_stop","name":"Kousa Jama Masjid","operator":"Thane Municipal Transport","public_transport":"platform","ref":"2749"}},{"type":"Feature","geometry":{"type":"Point","coordinates":[72.8582758,19.1844958]},"properties":{"highway":"bus_stop","name":"Kurar Village","operator":"Thane Municipal Transport","public_transport":"platform","ref":"2557"}},{"type":"Feature","geometry":{"type":"Point","coordinates":[72.9598915,19.2194294]},"properties":{"highway":"bus_stop","name":"Lakshmi Narayan Residency","operator":"Thane Municipal Transport","public_transport":"platform","ref":"706"}},{"type":"Feature","geometry":{"type":"Point","coordinates":[73.021246,19.1856076]},"properties":{"highway":"bus_stop","name":"Lalit Clinic","operator":"Thane Municipal Transport","public_transport":"platform","ref":"2371"}},{"type":"Feature","geometry":{"type":"Point","coordinates":[72.8675547,19.4071214]},"properties":{"highway":"bus_stop","name":"Laxmi Industry","operator":"Thane Municipal Transport","public_transport":"platform","ref":"3483"}},{"type":"Feature","geometry":{"type":"Point","coordinates":[72.9704236,19.2063901]},"properties":{"highway":"bus_stop","name":"Laxmi Nagar","operator":"Thane Municipal Transport","public_transport":"platform","ref":"1344"}},{"type":"Feature","geometry":{"type":"Point","coordinates":[72.9598138,19.2194294]},"properties":{"highway":"bus_stop","name":"Laxmi Narayan Society","operator":"Thane Municipal Transport","public_transport":"platform","ref":"2887"}},{"type":"Feature","geometry":{"type":"Point","coordinates":[72.9552753,19.212017]},"properties":{"highway":"bus_stop","name":"Laxmi Park","operator":"Thane Municipal Transport","public_transport":"platform","ref":"1308"}},{"type":"Feature","geometry":{"type":"Point","coordinates":[72.9792038,19.2496882]},"properties":{"highway":"bus_stop","name":"Leonard","operator":"Thane Municipal Transport","public_transport":"platform","ref":"97"}},{"type":"Feature","geometry":{"type":"Point","coordinates":[72.962642,19.193802]},"properties":{"highway":"bus_stop","name":"LIC Thane Divisional Office","operator":"Thane Municipal Transport","public_transport":"platform","ref":"1339"}},{"type":"Feature","geometry":{"type":"Point","coordinates":[72.9678416,19.272705]},"properties":{"highway":"bus_stop","name":"Little Angel School","operator":"Thane Municipal Transport","public_transport":"platform","ref":"351"}},{"type":"Feature","geometry":{"type":"Point","coordinates":[72.9765499,19.2298509]},"properties":{"highway":"bus_stop","name":"Lockim / R Mall","operator":"Thane Municipal Transport","public_transport":"platform","ref":"893"}},{"type":"Feature","geometry":{"type":"Point","coordinates":[72.975507,19.229835]},"properties":{"highway":"bus_stop","name":"Lockim Company","operator":"Thane Municipal Transport","public_transport":"platform","ref":"546"}},{"type":"Feature","geometry":{"type":"Point","coordinates":[72.9765472,19.2298496]},"properties":{"highway":"bus_stop","name":"Lockim Company / R Mall","operator":"Thane Municipal Transport","public_transport":"platform","ref":"787"}},{"type":"Feature","geometry":{"type":"Point","coordinates":[72.9843872,19.214334]},"properties":{"highway":"bus_stop","name":"Lodha","operator":"Thane Municipal Transport","public_transport":"platform","ref":"1605"}},{"type":"Feature","geometry":{"type":"Point","coordinates":[72.9883514,19.2096701]},"properties":{"highway":"bus_stop","name":"Lodha / Rustamji","operator":"Thane Municipal Transport","public_transport":"platform","ref":"938"}},{"type":"Feature","geometry":{"type":"Point","coordinates":[72.985838,19.2101169]},"properties":{"highway":"bus_stop","name":"Lodha / Saket","operator":"Thane Municipal Transport","public_transport":"platform","ref":"1425"}},{"type":"Feature","geometry":{"type":"Point","coordinates":[72.9843527,19.2132279]},"properties":{"highway":"bus_stop","name":"Lodha Complex","operator":"Thane Municipal Transport","public_transport":"platform","ref":"1604"}},{"type":"Feature","geometry":{"type":"Point","coordinates":[72.893543,19.3378647]},"properties":{"highway":"bus_stop","name":"Lodha Dham","operator":"Thane Municipal Transport","public_transport":"platform","ref":"3490"}},{"type":"Feature","geometry":{"type":"Point","coordinates":[72.9844518,19.21149]},"properties":{"highway":"bus_stop","name":"Lodha Gate","operator":"Thane Municipal Transport","public_transport":"platform","ref":"1603"}},{"type":"Feature","geometry":{"type":"Point","coordinates":[72.8414893,18.9522755]},"properties":{"highway":"bus_stop","name":"Loha Bhavan","operator":"Thane Municipal Transport","public_transport":"platform","ref":"4034"}},{"type":"Feature","geometry":{"type":"Point","coordinates":[72.9696791,19.2246611]},"properties":{"highway":"bus_stop","name":"Lok Puram","operator":"Thane Municipal Transport","public_transport":"platform","ref":"440"}},{"type":"Feature","geometry":{"type":"Point","coordinates":[72.9765486,19.2298498]},"properties":{"highway":"bus_stop","name":"Lokim Company / R Mall","operator":"Thane Municipal Transport","public_transport":"platform","ref":"78"}},{"type":"Feature","geometry":{"type":"Point","coordinates":[72.9768709,19.2301874]},"properties":{"highway":"bus_stop","name":"Lokim Company/ R Mall","operator":"Thane Municipal Transport","public_transport":"platform","ref":"18"}},{"type":"Feature","geometry":{"type":"Point","coordinates":[72.952164,19.2087262]},"properties":{"highway":"bus_stop","name":"Lokmanya Nagar","operator":"Thane Municipal Transport","public_transport":"platform","ref":"511"}},{"type":"Feature","geometry":{"type":"Point","coordinates":[72.962273,19.195604]},"properties":{"highway":"bus_stop","name":"Louiswadi","operator":"Thane Municipal Transport","public_transport":"platform","ref":"26"}},{"type":"Feature","geometry":{"type":"Point","coordinates":[72.9623414,19.1956483]},"properties":{"highway":"bus_stop","name":"Lousiwadi","operator":"Thane Municipal Transport","public_transport":"platform","ref":"1340"}},{"type":"Feature","geometry":{"type":"Point","coordinates":[72.9552524,19.191099]},"properties":{"highway":"bus_stop","name":"M. I. D. C","operator":"Thane Municipal Transport","public_transport":"platform","ref":"3143"}},{"type":"Feature","geometry":{"type":"Point","coordinates":[72.9552173,19.1910979]},"properties":{"highway":"bus_stop","name":"M.I.D.C","operator":"Thane Municipal Transport","public_transport":"platform","ref":"321"}},{"type":"Feature","geometry":{"type":"Point","coordinates":[72.8674497,19.1178379]},"properties":{"highway":"bus_stop","name":"M.I.D.C Chakala","operator":"Thane Municipal Transport","public_transport":"platform","ref":"3767"}},{"type":"Feature","geometry":{"type":"Point","coordinates":[72.9552531,19.1911155]},"properties":{"highway":"bus_stop","name":"M.I.D.C.","operator":"Thane Municipal Transport","public_transport":"platform","ref":"273"}},{"type":"Feature","geometry":{"type":"Point","coordinates":[72.851061,19.055448]},"properties":{"highway":"bus_stop","name":"M.M.R.T","operator":"Thane Municipal Transport","public_transport":"platform","ref":"2572"}},{"type":"Feature","geometry":{"type":"Point","coordinates":[72.8384222,19.0027303]},"properties":{"highway":"bus_stop","name":"Madkebuwa Chowk","operator":"Thane Municipal Transport","public_transport":"platform","ref":"3997"}},{"type":"Feature","geometry":{"type":"Point","coordinates":[72.8654933,19.2173648]},"properties":{"highway":"bus_stop","name":"Magathane Depot / Magathane Telephone Exchange","operator":"Thane Municipal Transport","public_transport":"platform","ref":"2553"}},{"type":"Feature","geometry":{"type":"Point","coordinates":[72.9825617,19.193954]},"properties":{"highway":"bus_stop","name":"Mahagiri Koliwada","operator":"Thane Municipal Transport","public_transport":"platform","ref":"2649"}},{"type":"Feature","geometry":{"type":"Point","coordinates":[72.9672617,19.1969147]},"properties":{"highway":"bus_stop","name":"Mahapalika Bhavan","operator":"Thane Municipal Transport","public_transport":"platform","ref":"165"}},{"type":"Feature","geometry":{"type":"Point","coordinates":[72.9679778,19.1975903]},"properties":{"highway":"bus_stop","name":"Mahapalika Bhawan","operator":"Thane Municipal Transport","public_transport":"platform","ref":"1669"}},{"type":"Feature","geometry":{"type":"Point","coordinates":[72.97007,19.229755]},"properties":{"highway":"bus_stop","name":"Maharashtra Nagar","operator":"Thane Municipal Transport","public_transport":"platform","ref":"2894"}},{"type":"Feature","geometry":{"type":"Point","coordinates":[72.875355,19.265143]},"properties":{"highway":"bus_stop","name":"Mahavishnu Mandir Samrat","operator":"Thane Municipal Transport","public_transport":"platform","ref":"1051"}},{"type":"Feature","geometry":{"type":"Point","coordinates":[72.8651573,19.1390822]},"properties":{"highway":"bus_stop","name":"Majas Depot","operator":"Thane Municipal Transport","public_transport":"platform","ref":"3957"}},{"type":"Feature","geometry":{"type":"Point","coordinates":[72.9773369,19.2108414]},"properties":{"highway":"bus_stop","name":"Majiwada","operator":"Thane Municipal Transport","public_transport":"platform","ref":"43"}},{"type":"Feature","geometry":{"type":"Point","coordinates":[72.9816729,19.2139249]},"properties":{"highway":"bus_stop","name":"Majiwada Gaon","operator":"Thane Municipal Transport","public_transport":"platform","ref":"3302"}},{"type":"Feature","geometry":{"type":"Point","coordinates":[72.9780454,19.2148411]},"properties":{"highway":"bus_stop","name":"Majiwada Gaon Corner","operator":"Thane Municipal Transport","public_transport":"platform","ref":"3304"}},{"type":"Feature","geometry":{"type":"Point","coordinates":[72.9771957,19.2108209]},"properties":{"highway":"bus_stop","name":"Majiwada Naka","operator":"Thane Municipal Transport","public_transport":"platform","ref":"333"}},{"type":"Feature","geometry":{"type":"Point","coordinates":[72.9717052,19.198432]},"properties":{"highway":"bus_stop","name":"Makhamali Talav","operator":"Thane Municipal Transport","public_transport":"platform","ref":"470"}},{"type":"Feature","geometry":{"type":"Point","coordinates":[72.966857,19.1874398]},"properties":{"highway":"bus_stop","name":"Malhar Cinema","operator":"Thane Municipal Transport","public_transport":"platform","ref":"37"}},{"type":"Feature","geometry":{"type":"Point","coordinates":[72.9907896,19.1968213]},"properties":{"highway":"bus_stop","name":"Manisha Nagar","operator":"Thane Municipal Transport","public_transport":"platform","ref":"290"}},{"type":"Feature","geometry":{"type":"Point","coordinates":[73.0409121,19.2403441]},"properties":{"highway":"bus_stop","name":"Mankoli","operator":"Thane Municipal Transport","public_transport":"platform","ref":"1477"}},{"type":"Feature","geometry":{"type":"Point","coordinates":[73.0414232,19.2403435]},"properties":{"highway":"bus_stop","name":"Mankoli Naka","operator":"Thane Municipal Transport","public_transport":"platform","ref":"1420"}},{"type":"Feature","geometry":{"type":"Point","coordinates":[72.98026,19.23195]},"properties":{"highway":"bus_stop","name":"Manorama Nagar","operator":"Thane Municipal Transport","public_transport":"platform","ref":"486"}},{"type":"Feature","geometry":{"type":"Point","coordinates":[72.97587,19.234887]},"properties":{"highway":"bus_stop","name":"Manpada","operator":"Thane Municipal Transport","public_transport":"platform","ref":"17"}},{"type":"Feature","geometry":{"type":"Point","coordinates":[72.8235709,18.9282418]},"properties":{"highway":"bus_stop","name":"Mantralaya","operator":"Thane Municipal Transport","public_transport":"platform","ref":"3994"}},{"type":"Feature","geometry":{"type":"Point","coordinates":[73.0388437,19.2702277]},"properties":{"highway":"bus_stop","name":"Maratha Punjab / Madvi Chowk","operator":"Thane Municipal Transport","public_transport":"platform","ref":"4074"}},{"type":"Feature","geometry":{"type":"Point","coordinates":[73.0387163,19.2703869]},"properties":{"highway":"bus_stop","name":"Maratha Punjab, Madvi Chowk","operator":"Thane Municipal Transport","public_transport":"platform","ref":"4066"}},{"type":"Feature","geometry":{"type":"Point","coordinates":[72.8652881,19.1183149]},"properties":{"highway":"bus_stop","name":"Marol Bus Depot","operator":"Thane Municipal Transport","public_transport":"platform","ref":"3766"}},{"type":"Feature","geometry":{"type":"Point","coordinates":[72.9697667,19.2226363]},"properties":{"highway":"bus_stop","name":"Mhada Vasahat","operator":"Thane Municipal Transport","public_transport":"platform","ref":"2891"}},{"type":"Feature","geometry":{"type":"Point","coordinates":[73.0550646,19.1498606]},"properties":{"highway":"bus_stop","name":"Mhatre Wadi / Patil Wadi","operator":"Thane Municipal Transport","public_transport":"platform","ref":"3606"}},{"type":"Feature","geometry":{"type":"Point","coordinates":[72.8435537,19.0900414]},"properties":{"highway":"bus_stop","name":"Milan Sub Way","operator":"Thane Municipal Transport","public_transport":"platform","ref":"2569"}},{"type":"Feature","geometry":{"type":"Point","coordinates":[72.8900168,19.1263256]},"properties":{"highway":"bus_stop","name":"Milind Nagar","operator":"Thane Municipal Transport","public_transport":"platform","ref":"3775"}},{"type":"Feature","geometry":{"type":"Point","coordinates":[73.0284846,19.1633161]},"properties":{"highway":"bus_stop","name":"Millenium Hospital / Shimla Park","operator":"Thane Municipal Transport","public_transport":"platform","ref":"2379"}},{"type":"Feature","geometry":{"type":"Point","coordinates":[73.0536017,19.250035]},"properties":{"highway":"bus_stop","name":"Mini Punjab","operator":"Thane Municipal Transport","public_transport":"platform","ref":"1419"}},{"type":"Feature","geometry":{"type":"Point","coordinates":[72.8786327,19.2695259]},"properties":{"highway":"bus_stop","name":"Mira Gaon","operator":"Thane Municipal Transport","public_transport":"platform","ref":"1617"}},{"type":"Feature","geometry":{"type":"Point","coordinates":[72.8768808,19.2665724]},"properties":{"highway":"bus_stop","name":"Mira Gaothan","operator":"Thane Municipal Transport","public_transport":"platform","ref":"1616"}},{"type":"Feature","geometry":{"type":"Point","coordinates":[72.8579631,19.2813686]},"properties":{"highway":"bus_stop","name":"Mira Road Station","operator":"Thane Municipal Transport","public_transport":"platform","ref":"580"}},{"type":"Feature","geometry":{"type":"Point","coordinates":[72.9639843,19.1654703]},"properties":{"highway":"bus_stop","name":"Mithagar","operator":"Thane Municipal Transport","public_transport":"platform","ref":"3790"}},{"type":"Feature","geometry":{"type":"Point","coordinates":[72.9717156,19.1984375]},"properties":{"highway":"bus_stop","name":"Mkhamali Talav","operator":"Thane Municipal Transport","public_transport":"platform","ref":"882"}},{"type":"Feature","geometry":{"type":"Point","coordinates":[72.8709304,19.0736576]},"properties":{"highway":"bus_stop","name":"Mohammad Estate","operator":"Thane Municipal Transport","public_transport":"platform","ref":"3863"}},{"type":"Feature","geometry":{"type":"Point","coordinates":[72.9598,19.26169667]},"properties":{"highway":"bus_stop","name":"Monalisa Lawns","operator":"Thane Municipal Transport","public_transport":"platform","ref":"3081"}},{"type":"Feature","geometry":{"type":"Point","coordinates":[72.8659887,19.1943166]},"properties":{"highway":"bus_stop","name":"MTNL","operator":"Thane Municipal Transport","public_transport":"platform","ref":"2087"}},{"type":"Feature","geometry":{"type":"Point","coordinates":[72.8715659,19.0706531]},"properties":{"highway":"bus_stop","name":"MTNL Telephone Exchange BKC","operator":"Thane Municipal Transport","public_transport":"platform","ref":"3862"}},{"type":"Feature","geometry":{"type":"Point","coordinates":[72.968225,19.26279]},"properties":{"highway":"bus_stop","name":"Muchhala College","operator":"Thane Municipal Transport","public_transport":"platform","ref":"9"}},{"type":"Feature","geometry":{"type":"Point","coordinates":[72.9770937,19.2103821]},"properties":{"highway":"bus_stop","name":"Muktai Nagar","operator":"Thane Municipal Transport","public_transport":"platform","ref":"332"}},{"type":"Feature","geometry":{"type":"Point","coordinates":[72.9771252,19.2105724]},"properties":{"highway":"bus_stop","name":"Muktaingar","operator":"Thane Municipal Transport","public_transport":"platform","ref":"888"}},{"type":"Feature","geometry":{"type":"Point","coordinates":[72.9754799,19.2390509]},"properties":{"highway":"bus_stop","name":"Mulla Bagh","operator":"Thane Municipal Transport","public_transport":"platform","ref":"16"}},{"type":"Feature","geometry":{"type":"Point","coordinates":[72.9754867,19.2390514]},"properties":{"highway":"bus_stop","name":"Mullabaugh","operator":"Thane Municipal Transport","public_transport":"platform","ref":"3891"}},{"type":"Feature","geometry":{"type":"Point","coordinates":[72.9543665,19.1842828]},"properties":{"highway":"bus_stop","name":"Mulund","operator":"Thane Municipal Transport","public_transport":"platform","ref":"2544"}},{"type":"Feature","geometry":{"type":"Point","coordinates":[72.9538672,19.184173]},"properties":{"highway":"bus_stop","name":"Mulund Check Naka","operator":"Thane Municipal Transport","public_transport":"platform","ref":"274"}},{"type":"Feature","geometry":{"type":"Point","coordinates":[72.956175,19.185458]},"properties":{"highway":"bus_stop","name":"Mulund Check Naka (Narpoli)","operator":"Thane Municipal Transport","public_transport":"platform","ref":"1334"}},{"type":"Feature","geometry":{"type":"Point","coordinates":[72.9580166,19.17469]},"properties":{"highway":"bus_stop","name":"Mulund Court / Mulund Station (W)","operator":"Thane Municipal Transport","public_transport":"platform","ref":"2858"}},{"type":"Feature","geometry":{"type":"Point","coordinates":[72.9544977,19.1739683]},"properties":{"highway":"bus_stop","name":"Mulund Shivsena","operator":"Thane Municipal Transport","public_transport":"platform","ref":"2251"}},{"type":"Feature","geometry":{"type":"Point","coordinates":[72.9505403,19.178103]},"properties":{"highway":"bus_stop","name":"Mulund Sonapur","operator":"Thane Municipal Transport","public_transport":"platform","ref":"1293"}},{"type":"Feature","geometry":{"type":"Point","coordinates":[72.9544266,19.1737011]},"properties":{"highway":"bus_stop","name":"Mulund Station (W)","operator":"Thane Municipal Transport","public_transport":"platform","ref":"992"}},{"type":"Feature","geometry":{"type":"Point","coordinates":[73.0226129,19.1899457]},"properties":{"highway":"bus_stop","name":"Mumbra","operator":"Thane Municipal Transport","public_transport":"platform","ref":"2736"}},{"type":"Feature","geometry":{"type":"Point","coordinates":[73.0223411,19.1832987]},"properties":{"highway":"bus_stop","name":"Mumbra Police Station","operator":"Thane Municipal Transport","public_transport":"platform","ref":"2372"}},{"type":"Feature","geometry":{"type":"Point","coordinates":[73.0214638,19.1874302]},"properties":{"highway":"bus_stop","name":"Mumbra Prabhat Office","operator":"Thane Municipal Transport","public_transport":"platform","ref":"2370"}},{"type":"Feature","geometry":{"type":"Point","coordinates":[73.022615,19.1899461]},"properties":{"highway":"bus_stop","name":"Mumbra Railway Station","operator":"Thane Municipal Transport","public_transport":"platform","ref":"2369"}},{"type":"Feature","geometry":{"type":"Point","coordinates":[73.0226532,19.1773887]},"properties":{"highway":"bus_stop","name":"Mumbra Shiv Mandir","operator":"Thane Municipal Transport","public_transport":"platform","ref":"2374"}},{"type":"Feature","geometry":{"type":"Point","coordinates":[73.007375,19.212478]},"properties":{"highway":"bus_stop","name":"Mumbra Toll Naka","operator":"Thane Municipal Transport","public_transport":"platform","ref":"1423"}},{"type":"Feature","geometry":{"type":"Point","coordinates":[72.9777938,19.2481914]},"properties":{"highway":"bus_stop","name":"Municipal Commissioner House","operator":"Thane Municipal Transport","public_transport":"platform","ref":"3898"}},{"type":"Feature","geometry":{"type":"Point","coordinates":[72.962255,19.192875]},"properties":{"highway":"bus_stop","name":"Murfi Company","operator":"Thane Municipal Transport","public_transport":"platform","ref":"215"}},{"type":"Feature","geometry":{"type":"Point","coordinates":[73.00984,19.20946667]},"properties":{"highway":"bus_stop","name":"Nadanawan Homes","operator":"Thane Municipal Transport","public_transport":"platform","ref":"2989"}},{"type":"Feature","geometry":{"type":"Point","coordinates":[72.950145,19.284162]},"properties":{"highway":"bus_stop","name":"Nagala Bunder","operator":"Thane Municipal Transport","public_transport":"platform","ref":"600"}},{"type":"Feature","geometry":{"type":"Point","coordinates":[72.9126542,19.074828]},"properties":{"highway":"bus_stop","name":"Nalanda","operator":"Thane Municipal Transport","public_transport":"platform","ref":"3868"}},{"type":"Feature","geometry":{"type":"Point","coordinates":[72.8192186,19.4207492]},"properties":{"highway":"bus_stop","name":"Nalasopara Railway Station (E)","operator":"Thane Municipal Transport","public_transport":"platform","ref":"3464"}},{"type":"Feature","geometry":{"type":"Point","coordinates":[72.9662692,19.1981724]},"properties":{"highway":"bus_stop","name":"Namdev Wadi","operator":"Thane Municipal Transport","public_transport":"platform","ref":"164"}},{"type":"Feature","geometry":{"type":"Point","coordinates":[73.009865,19.20932667]},"properties":{"highway":"bus_stop","name":"Nandanwan Homes","operator":"Thane Municipal Transport","public_transport":"platform","ref":"2986"}},{"type":"Feature","geometry":{"type":"Point","coordinates":[73.0500071,19.2835044]},"properties":{"highway":"bus_stop","name":"Narpoli Police Station","operator":"Thane Municipal Transport","public_transport":"platform","ref":"1366"}},{"type":"Feature","geometry":{"type":"Point","coordinates":[73.0244444,19.1700725]},"properties":{"highway":"bus_stop","name":"Nashimat Colony","operator":"Thane Municipal Transport","public_transport":"platform","ref":"3619"}},{"type":"Feature","geometry":{"type":"Point","coordinates":[72.863136,19.230497]},"properties":{"highway":"bus_stop","name":"National Park","operator":"Thane Municipal Transport","public_transport":"platform","ref":"1151"}},{"type":"Feature","geometry":{"type":"Point","coordinates":[72.9675119,19.188317]},"properties":{"highway":"bus_stop","name":"Naupada","operator":"Thane Municipal Transport","public_transport":"platform","ref":"2293"}},{"type":"Feature","geometry":{"type":"Point","coordinates":[72.958893,19.220972]},"properties":{"highway":"bus_stop","name":"Neelkanth Terminus","operator":"Thane Municipal Transport","public_transport":"platform","ref":"400"}},{"type":"Feature","geometry":{"type":"Point","coordinates":[72.8626086,19.1170306]},"properties":{"highway":"bus_stop","name":"Nelco Company","operator":"Thane Municipal Transport","public_transport":"platform","ref":"3948"}},{"type":"Feature","geometry":{"type":"Point","coordinates":[72.8632586,19.237669]},"properties":{"highway":"bus_stop","name":"Nency Colony","operator":"Thane Municipal Transport","public_transport":"platform","ref":"1046"}},{"type":"Feature","geometry":{"type":"Point","coordinates":[72.9754576,19.2006722]},"properties":{"highway":"bus_stop","name":"New Shakti Mill","operator":"Thane Municipal Transport","public_transport":"platform","ref":"134"}},{"type":"Feature","geometry":{"type":"Point","coordinates":[72.9754838,19.200687]},"properties":{"highway":"bus_stop","name":"New Shakti Mill / Ambedkar Road","operator":"Thane Municipal Transport","public_transport":"platform","ref":"227"}},{"type":"Feature","geometry":{"type":"Point","coordinates":[72.958532,19.2247863]},"properties":{"highway":"bus_stop","name":"Nilkanth","operator":"Thane Municipal Transport","public_transport":"platform","ref":"3254"}},{"type":"Feature","geometry":{"type":"Point","coordinates":[72.9628955,19.1988432]},"properties":{"highway":"bus_stop","name":"Nitin Company","operator":"Thane Municipal Transport","public_transport":"platform","ref":"25"}},{"type":"Feature","geometry":{"type":"Point","coordinates":[72.9648541,19.1989775]},"properties":{"highway":"bus_stop","name":"Nitin Company / Bata Showroom","operator":"Thane Municipal Transport","public_transport":"platform","ref":"1797"}},{"type":"Feature","geometry":{"type":"Point","coordinates":[72.9885199,19.2349173]},"properties":{"highway":"bus_stop","name":"Novartis","operator":"Thane Municipal Transport","public_transport":"platform","ref":"828"}},{"type":"Feature","geometry":{"type":"Point","coordinates":[72.862502,19.2305441]},"properties":{"highway":"bus_stop","name":"Omkareshwar Mandir","operator":"Thane Municipal Transport","public_transport":"platform","ref":"1045"}},{"type":"Feature","geometry":{"type":"Point","coordinates":[72.827415,19.4072661]},"properties":{"highway":"bus_stop","name":"Oriental Bank","operator":"Thane Municipal Transport","public_transport":"platform","ref":"3472"}},{"type":"Feature","geometry":{"type":"Point","coordinates":[72.8704854,19.1209247]},"properties":{"highway":"bus_stop","name":"Orkay Mill","operator":"Thane Municipal Transport","public_transport":"platform","ref":"3770"}},{"type":"Feature","geometry":{"type":"Point","coordinates":[72.976068,19.2145007]},"properties":{"highway":"bus_stop","name":"Oswal Park","operator":"Thane Municipal Transport","public_transport":"platform","ref":"393"}},{"type":"Feature","geometry":{"type":"Point","coordinates":[73.0443014,19.276363]},"properties":{"highway":"bus_stop","name":"Oswal Sagar Hall","operator":"Thane Municipal Transport","public_transport":"platform","ref":"1365"}},{"type":"Feature","geometry":{"type":"Point","coordinates":[72.96033,19.2741916]},"properties":{"highway":"bus_stop","name":"Ovala","operator":"Thane Municipal Transport","public_transport":"platform","ref":"1068"}},{"type":"Feature","geometry":{"type":"Point","coordinates":[72.9603093,19.273965]},"properties":{"highway":"bus_stop","name":"Ovala Gaon","operator":"Thane Municipal Transport","public_transport":"platform","ref":"4"}},{"type":"Feature","geometry":{"type":"Point","coordinates":[73.05934,19.253223]},"properties":{"highway":"bus_stop","name":"Owali","operator":"Thane Municipal Transport","public_transport":"platform","ref":"1418"}},{"type":"Feature","geometry":{"type":"Point","coordinates":[72.9519274,19.1755892]},"properties":{"highway":"bus_stop","name":"Pach Rasta","operator":"Thane Municipal Transport","public_transport":"platform","ref":"2803"}},{"type":"Feature","geometry":{"type":"Point","coordinates":[72.9527894,19.1754957]},"properties":{"highway":"bus_stop","name":"Pach Rasta Devidayal","operator":"Thane Municipal Transport","public_transport":"platform","ref":"2548"}},{"type":"Feature","geometry":{"type":"Point","coordinates":[72.950095,19.175456]},"properties":{"highway":"bus_stop","name":"Pach Rasta Devidayal Road","operator":"Thane Municipal Transport","public_transport":"platform","ref":"991"}},{"type":"Feature","geometry":{"type":"Point","coordinates":[73.0601915,19.1536106]},"properties":{"highway":"bus_stop","name":"Padle Gaon","operator":"Thane Municipal Transport","public_transport":"platform","ref":"3605"}},{"type":"Feature","geometry":{"type":"Point","coordinates":[72.9704781,19.2571]},"properties":{"highway":"bus_stop","name":"Panchamrit","operator":"Thane Municipal Transport","public_transport":"platform","ref":"11"}},{"type":"Feature","geometry":{"type":"Point","coordinates":[72.9096798,19.1237219]},"properties":{"highway":"bus_stop","name":"Panchkutir / Ganesh Mandir","operator":"Thane Municipal Transport","public_transport":"platform","ref":"3780"}},{"type":"Feature","geometry":{"type":"Point","coordinates":[72.822997,19.4162981]},"properties":{"highway":"bus_stop","name":"Paras Shop","operator":"Thane Municipal Transport","public_transport":"platform","ref":"3467"}},{"type":"Feature","geometry":{"type":"Point","coordinates":[72.96547667,19.262215]},"properties":{"highway":"bus_stop","name":"Parkwood Society","operator":"Thane Municipal Transport","public_transport":"platform","ref":"3082"}},{"type":"Feature","geometry":{"type":"Point","coordinates":[72.966749,19.194391]},"properties":{"highway":"bus_stop","name":"Parmarth Niketan","operator":"Thane Municipal Transport","public_transport":"platform","ref":"166"}},{"type":"Feature","geometry":{"type":"Point","coordinates":[73.0014385,19.203117]},"properties":{"highway":"bus_stop","name":"Parsik Nagar","operator":"Thane Municipal Transport","public_transport":"platform","ref":"1484"}},{"type":"Feature","geometry":{"type":"Point","coordinates":[72.949149,19.1921022]},"properties":{"highway":"bus_stop","name":"Passport Office","operator":"Thane Municipal Transport","public_transport":"platform","ref":"520"}},{"type":"Feature","geometry":{"type":"Point","coordinates":[72.9552209,19.1910975]},"properties":{"highway":"bus_stop","name":"Passport Office / M.I.D.C","operator":"Thane Municipal Transport","public_transport":"platform","ref":"1161"}},{"type":"Feature","geometry":{"type":"Point","coordinates":[72.8582764,19.1793917]},"properties":{"highway":"bus_stop","name":"Pathan Wadi","operator":"Thane Municipal Transport","public_transport":"platform","ref":"2558"}},{"type":"Feature","geometry":{"type":"Point","coordinates":[72.8955548,19.3213076]},"properties":{"highway":"bus_stop","name":"Pathar Pada","operator":"Thane Municipal Transport","public_transport":"platform","ref":"3491"}},{"type":"Feature","geometry":{"type":"Point","coordinates":[72.9752869,19.2461044]},"properties":{"highway":"bus_stop","name":"Patli Pada","operator":"Thane Municipal Transport","public_transport":"platform","ref":"14"}},{"type":"Feature","geometry":{"type":"Point","coordinates":[72.9661056,19.2288757]},"properties":{"highway":"bus_stop","name":"Pawar Nagar","operator":"Thane Municipal Transport","public_transport":"platform","ref":"443"}},{"type":"Feature","geometry":{"type":"Point","coordinates":[73.06928,19.26032]},"properties":{"highway":"bus_stop","name":"Pimplas","operator":"Thane Municipal Transport","public_transport":"platform","ref":"1417"}},{"type":"Feature","geometry":{"type":"Point","coordinates":[73.012156,19.2140504]},"properties":{"highway":"bus_stop","name":"Pipe Line","operator":"Thane Municipal Transport","public_transport":"platform","ref":"1481"}},{"type":"Feature","geometry":{"type":"Point","coordinates":[73.0180169,19.251025]},"properties":{"highway":"bus_stop","name":"Pipe Line Kalher","operator":"Thane Municipal Transport","public_transport":"platform","ref":"1358"}},{"type":"Feature","geometry":{"type":"Point","coordinates":[73.073958,19.281288]},"properties":{"highway":"bus_stop","name":"Pipeline Road","operator":"Thane Municipal Transport","public_transport":"platform","ref":"1412"}},{"type":"Feature","geometry":{"type":"Point","coordinates":[72.899269,19.285262]},"properties":{"highway":"bus_stop","name":"Piyushpani Parshvanath Jain Temple","operator":"Thane Municipal Transport","public_transport":"platform","ref":"1056"}},{"type":"Feature","geometry":{"type":"Point","coordinates":[72.899548,19.285287]},"properties":{"highway":"bus_stop","name":"Piyushpani Parshvnath Jain Temple","operator":"Thane Municipal Transport","public_transport":"platform","ref":"568"}},{"type":"Feature","geometry":{"type":"Point","coordinates":[72.97884,19.200933]},"properties":{"highway":"bus_stop","name":"Police Line","operator":"Thane Municipal Transport","public_transport":"platform","ref":"329"}},{"type":"Feature","geometry":{"type":"Point","coordinates":[72.954776,19.280963]},"properties":{"highway":"bus_stop","name":"Poshmata Mandir","operator":"Thane Municipal Transport","public_transport":"platform","ref":"2"}},{"type":"Feature","geometry":{"type":"Point","coordinates":[72.9128171,19.1238007]},"properties":{"highway":"bus_stop","name":"Powai Plaza","operator":"Thane Municipal Transport","public_transport":"platform","ref":"3781"}},{"type":"Feature","geometry":{"type":"Point","coordinates":[72.8998554,19.1199414]},"properties":{"highway":"bus_stop","name":"Powai Police Station / Ram Ashram","operator":"Thane Municipal Transport","public_transport":"platform","ref":"3777"}},{"type":"Feature","geometry":{"type":"Point","coordinates":[72.9038236,19.1191924]},"properties":{"highway":"bus_stop","name":"Powai Vihar Sankul","operator":"Thane Municipal Transport","public_transport":"platform","ref":"3778"}},{"type":"Feature","geometry":{"type":"Point","coordinates":[73.067328,19.2889193]},"properties":{"highway":"bus_stop","name":"Power House","operator":"Thane Municipal Transport","public_transport":"platform","ref":"1410"}},{"type":"Feature","geometry":{"type":"Point","coordinates":[72.9764131,19.1905101]},"properties":{"highway":"bus_stop","name":"Prabhat Cinema","operator":"Thane Municipal Transport","public_transport":"platform","ref":"268"}},{"type":"Feature","geometry":{"type":"Point","coordinates":[72.967044,19.1933609]},"properties":{"highway":"bus_stop","name":"Pradeep Society","operator":"Thane Municipal Transport","public_transport":"platform","ref":"167"}},{"type":"Feature","geometry":{"type":"Point","coordinates":[72.973526,19.203424]},"properties":{"highway":"bus_stop","name":"Pratap Cinema","operator":"Thane Municipal Transport","public_transport":"platform","ref":"1032"}},{"type":"Feature","geometry":{"type":"Point","coordinates":[72.8562679,19.1408636]},"properties":{"highway":"bus_stop","name":"Pratap Nagar","operator":"Thane Municipal Transport","public_transport":"platform","ref":"3961"}},{"type":"Feature","geometry":{"type":"Point","coordinates":[73.0046332,19.2029892]},"properties":{"highway":"bus_stop","name":"Prem Nagar","operator":"Thane Municipal Transport","public_transport":"platform","ref":"1487"}},{"type":"Feature","geometry":{"type":"Point","coordinates":[72.8792003,19.0525635]},"properties":{"highway":"bus_stop","name":"Priyadarshini","operator":"Thane Municipal Transport","public_transport":"platform","ref":"4001"}},{"type":"Feature","geometry":{"type":"Point","coordinates":[72.8216929,19.4180562]},"properties":{"highway":"bus_stop","name":"Pudhari Nagar","operator":"Thane Municipal Transport","public_transport":"platform","ref":"3466"}},{"type":"Feature","geometry":{"type":"Point","coordinates":[72.969558,19.2039878]},"properties":{"highway":"bus_stop","name":"Pujani Estate","operator":"Thane Municipal Transport","public_transport":"platform","ref":"132"}},{"type":"Feature","geometry":{"type":"Point","coordinates":[72.8816373,19.2759849]},"properties":{"highway":"bus_stop","name":"Punjab Foundry","operator":"Thane Municipal Transport","public_transport":"platform","ref":"589"}},{"type":"Feature","geometry":{"type":"Point","coordinates":[73.0264116,19.258123]},"properties":{"highway":"bus_stop","name":"Purna","operator":"Thane Municipal Transport","public_transport":"platform","ref":"1360"}},{"type":"Feature","geometry":{"type":"Point","coordinates":[72.9812304,19.1988958]},"properties":{"highway":"bus_stop","name":"R. T. O/ Central Jail","operator":"Thane Municipal Transport","public_transport":"platform","ref":"3002"}},{"type":"Feature","geometry":{"type":"Point","coordinates":[72.9628555,19.1923771]},"properties":{"highway":"bus_stop","name":"R. T. O/ L. I. C","operator":"Thane Municipal Transport","public_transport":"platform","ref":"2274"}},{"type":"Feature","geometry":{"type":"Point","coordinates":[72.9812883,19.1990638]},"properties":{"highway":"bus_stop","name":"R. T. O/Central Jail","operator":"Thane Municipal Transport","public_transport":"platform","ref":"2973"}},{"type":"Feature","geometry":{"type":"Point","coordinates":[72.98104,19.198843]},"properties":{"highway":"bus_stop","name":"R.T.O Thane","operator":"Thane Municipal Transport","public_transport":"platform","ref":"287"}},{"type":"Feature","geometry":{"type":"Point","coordinates":[72.9104689,19.0732258]},"properties":{"highway":"bus_stop","name":"R.T.O. / Kamraj Nagar","operator":"Thane Municipal Transport","public_transport":"platform","ref":"3867"}},{"type":"Feature","geometry":{"type":"Point","coordinates":[72.9799637,19.2027537]},"properties":{"highway":"bus_stop","name":"Rabodi","operator":"Thane Municipal Transport","public_transport":"platform","ref":"1827"}},{"type":"Feature","geometry":{"type":"Point","coordinates":[73.0059517,19.2070136]},"properties":{"highway":"bus_stop","name":"Raghukul Society","operator":"Thane Municipal Transport","public_transport":"platform","ref":"2987"}},{"type":"Feature","geometry":{"type":"Point","coordinates":[73.0298989,19.2619876]},"properties":{"highway":"bus_stop","name":"Rahnal","operator":"Thane Municipal Transport","public_transport":"platform","ref":"1362"}},{"type":"Feature","geometry":{"type":"Point","coordinates":[72.8384826,18.9403767]},"properties":{"highway":"bus_stop","name":"Railway Accident Court","operator":"Thane Municipal Transport","public_transport":"platform","ref":"4036"}},{"type":"Feature","geometry":{"type":"Point","coordinates":[73.0070021,19.20485948]},"properties":{"highway":"bus_stop","name":"Raj Park","operator":"Thane Municipal Transport","public_transport":"platform","ref":"1511"}},{"type":"Feature","geometry":{"type":"Point","coordinates":[72.9743513,19.1948902]},"properties":{"highway":"bus_stop","name":"Ram Ganesh Gadkari Rangayatan","operator":"Thane Municipal Transport","public_transport":"platform","ref":"468"}},{"type":"Feature","geometry":{"type":"Point","coordinates":[72.945063,19.2351511]},"properties":{"highway":"bus_stop","name":"Ram Mandir","operator":"Thane Municipal Transport","public_transport":"platform","ref":"243"}},{"type":"Feature","geometry":{"type":"Point","coordinates":[72.91566,19.0775752]},"properties":{"highway":"bus_stop","name":"Ramabai Nagar","operator":"Thane Municipal Transport","public_transport":"platform","ref":"3869"}},{"type":"Feature","geometry":{"type":"Point","coordinates":[72.9622281,19.2000347]},"properties":{"highway":"bus_stop","name":"Ramchandra Nagar","operator":"Thane Municipal Transport","public_transport":"platform","ref":"162"}},{"type":"Feature","geometry":{"type":"Point","coordinates":[72.9622564,19.2000807]},"properties":{"highway":"bus_stop","name":"Ramchandra Nagar No 1","operator":"Thane Municipal Transport","public_transport":"platform","ref":"1671"}},{"type":"Feature","geometry":{"type":"Point","coordinates":[73.0095623,19.20422167]},"properties":{"highway":"bus_stop","name":"Rameshwar Society","operator":"Thane Municipal Transport","public_transport":"platform","ref":"3177"}},{"type":"Feature","geometry":{"type":"Point","coordinates":[72.858449,19.1402967]},"properties":{"highway":"bus_stop","name":"Ramwadi","operator":"Thane Municipal Transport","public_transport":"platform","ref":"3960"}},{"type":"Feature","geometry":{"type":"Point","coordinates":[72.850363,19.4055834]},"properties":{"highway":"bus_stop","name":"Range Office","operator":"Thane Municipal Transport","public_transport":"platform","ref":"3478"}},{"type":"Feature","geometry":{"type":"Point","coordinates":[72.867564,19.251793]},"properties":{"highway":"bus_stop","name":"Raval Pada","operator":"Thane Municipal Transport","public_transport":"platform","ref":"1048"}},{"type":"Feature","geometry":{"type":"Point","coordinates":[72.945314,19.1950918]},"properties":{"highway":"bus_stop","name":"Ravi Fisheries","operator":"Thane Municipal Transport","public_transport":"platform","ref":"3147"}},{"type":"Feature","geometry":{"type":"Point","coordinates":[72.9641452,19.2074119]},"properties":{"highway":"bus_stop","name":"Raymond","operator":"Thane Municipal Transport","public_transport":"platform","ref":"199"}},{"type":"Feature","geometry":{"type":"Point","coordinates":[72.8815303,19.1292903]},"properties":{"highway":"bus_stop","name":"Reliance Energy Training Center","operator":"Thane Municipal Transport","public_transport":"platform","ref":"3773"}},{"type":"Feature","geometry":{"type":"Point","coordinates":[73.0115,19.20773167]},"properties":{"highway":"bus_stop","name":"Reliance Market","operator":"Thane Municipal Transport","public_transport":"platform","ref":"2990"}},{"type":"Feature","geometry":{"type":"Point","coordinates":[72.8530886,19.0576886]},"properties":{"highway":"bus_stop","name":"Reserve Bank Of India (RBI) BKC","operator":"Thane Municipal Transport","public_transport":"platform","ref":"3857"}},{"type":"Feature","geometry":{"type":"Point","coordinates":[73.0222099,19.2003089]},"properties":{"highway":"bus_stop","name":"Reti Bunder 1","operator":"Thane Municipal Transport","public_transport":"platform","ref":"2368"}},{"type":"Feature","geometry":{"type":"Point","coordinates":[73.0199248,19.2025637]},"properties":{"highway":"bus_stop","name":"Reti Bunder 2/Ranna Nagar","operator":"Thane Municipal Transport","public_transport":"platform","ref":"2367"}},{"type":"Feature","geometry":{"type":"Point","coordinates":[73.0177183,19.2069331]},"properties":{"highway":"bus_stop","name":"Reti Bunder 3","operator":"Thane Municipal Transport","public_transport":"platform","ref":"2366"}},{"type":"Feature","geometry":{"type":"Point","coordinates":[73.0157015,19.2100284]},"properties":{"highway":"bus_stop","name":"Reti Bunder Circle","operator":"Thane Municipal Transport","public_transport":"platform","ref":"1482"}},{"type":"Feature","geometry":{"type":"Point","coordinates":[73.0204258,19.2025627]},"properties":{"highway":"bus_stop","name":"Retibndar No.2","operator":"Thane Municipal Transport","public_transport":"platform","ref":"2758"}},{"type":"Feature","geometry":{"type":"Point","coordinates":[73.0199345,19.2034565]},"properties":{"highway":"bus_stop","name":"Retibunder 2","operator":"Thane Municipal Transport","public_transport":"platform","ref":"2734"}},{"type":"Feature","geometry":{"type":"Point","coordinates":[73.0178146,19.2070781]},"properties":{"highway":"bus_stop","name":"Retibunder 3","operator":"Thane Municipal Transport","public_transport":"platform","ref":"2733"}},{"type":"Feature","geometry":{"type":"Point","coordinates":[73.0222076,19.2003094]},"properties":{"highway":"bus_stop","name":"Retibunder Number 1","operator":"Thane Municipal Transport","public_transport":"platform","ref":"3629"}},{"type":"Feature","geometry":{"type":"Point","coordinates":[73.0199267,19.2025636]},"properties":{"highway":"bus_stop","name":"Retibunder Number 2/Ranna Nagar","operator":"Thane Municipal Transport","public_transport":"platform","ref":"3630"}},{"type":"Feature","geometry":{"type":"Point","coordinates":[73.0177184,19.2069334]},"properties":{"highway":"bus_stop","name":"Retibunder Number 3","operator":"Thane Municipal Transport","public_transport":"platform","ref":"3631"}},{"type":"Feature","geometry":{"type":"Point","coordinates":[73.0223724,19.2004028]},"properties":{"highway":"bus_stop","name":"Retuibunder 1","operator":"Thane Municipal Transport","public_transport":"platform","ref":"2735"}},{"type":"Feature","geometry":{"type":"Point","coordinates":[72.9536516,19.1933758]},"properties":{"highway":"bus_stop","name":"Road No 16","operator":"Thane Municipal Transport","public_transport":"platform","ref":"272"}},{"type":"Feature","geometry":{"type":"Point","coordinates":[72.9493736,19.1936849]},"properties":{"highway":"bus_stop","name":"Road No 22","operator":"Thane Municipal Transport","public_transport":"platform","ref":"1298"}},{"type":"Feature","geometry":{"type":"Point","coordinates":[72.9453144,19.1950826]},"properties":{"highway":"bus_stop","name":"Road No 27","operator":"Thane Municipal Transport","public_transport":"platform","ref":"2531"}},{"type":"Feature","geometry":{"type":"Point","coordinates":[72.897853,19.318401]},"properties":{"highway":"bus_stop","name":"Royal Garden Resort","operator":"Thane Municipal Transport","public_transport":"platform","ref":"3492"}},{"type":"Feature","geometry":{"type":"Point","coordinates":[72.9873865,19.2225681]},"properties":{"highway":"bus_stop","name":"Runwal Garden City","operator":"Thane Municipal Transport","public_transport":"platform","ref":"3048"}},{"type":"Feature","geometry":{"type":"Point","coordinates":[72.9742611,19.206645]},"properties":{"highway":"bus_stop","name":"Runwal Nagar","operator":"Thane Municipal Transport","public_transport":"platform","ref":"1034"}},{"type":"Feature","geometry":{"type":"Point","coordinates":[72.957938,19.2079385]},"properties":{"highway":"bus_stop","name":"Runwal Plaza","operator":"Thane Municipal Transport","public_transport":"platform","ref":"975"}},{"type":"Feature","geometry":{"type":"Point","coordinates":[72.978866,19.2478848]},"properties":{"highway":"bus_stop","name":"Rutu Tower","operator":"Thane Municipal Transport","public_transport":"platform","ref":"87"}},{"type":"Feature","geometry":{"type":"Point","coordinates":[72.959075,19.2133836]},"properties":{"highway":"bus_stop","name":"S T Juna Thamba / Shastri Nagar","operator":"Thane Municipal Transport","public_transport":"platform","ref":"234"}},{"type":"Feature","geometry":{"type":"Point","coordinates":[72.959045,19.213433]},"properties":{"highway":"bus_stop","name":"S T Juna Thamba / Shastri Nagar Naka","operator":"Thane Municipal Transport","public_transport":"platform","ref":"127"}},{"type":"Feature","geometry":{"type":"Point","coordinates":[72.9797748,19.214505]},"properties":{"highway":"bus_stop","name":"Sachin Society","operator":"Thane Municipal Transport","public_transport":"platform","ref":"3303"}},{"type":"Feature","geometry":{"type":"Point","coordinates":[73.00457054,19.20294476]},"properties":{"highway":"bus_stop","name":"Saffire","operator":"Thane Municipal Transport","public_transport":"platform","ref":"2762"}},{"type":"Feature","geometry":{"type":"Point","coordinates":[72.894339,19.0649364]},"properties":{"highway":"bus_stop","name":"Sahakar Nagar","operator":"Thane Municipal Transport","public_transport":"platform","ref":"3865"}},{"type":"Feature","geometry":{"type":"Point","coordinates":[72.9726103,19.2362974]},"properties":{"highway":"bus_stop","name":"Sahayog Soc","operator":"Thane Municipal Transport","public_transport":"platform","ref":"895"}},{"type":"Feature","geometry":{"type":"Point","coordinates":[72.972611,19.2362979]},"properties":{"highway":"bus_stop","name":"Sahayog Society","operator":"Thane Municipal Transport","public_transport":"platform","ref":"785"}},{"type":"Feature","geometry":{"type":"Point","coordinates":[72.993545,19.197759]},"properties":{"highway":"bus_stop","name":"Sahyadri Society","operator":"Thane Municipal Transport","public_transport":"platform","ref":"291"}},{"type":"Feature","geometry":{"type":"Point","coordinates":[73.0132489,19.2090458]},"properties":{"highway":"bus_stop","name":"Sai Nath Nagar","operator":"Thane Municipal Transport","public_transport":"platform","ref":"1483"}},{"type":"Feature","geometry":{"type":"Point","coordinates":[73.079615,19.274217]},"properties":{"highway":"bus_stop","name":"Saibaba Mandir","operator":"Thane Municipal Transport","public_transport":"platform","ref":"1414"}},{"type":"Feature","geometry":{"type":"Point","coordinates":[72.9665961,19.2090331]},"properties":{"highway":"bus_stop","name":"Sainath Nagar","operator":"Thane Municipal Transport","public_transport":"platform","ref":"7"}},{"type":"Feature","geometry":{"type":"Point","coordinates":[72.966582,19.266847]},"properties":{"highway":"bus_stop","name":"Sainath Nagar / Hyper City Mall","operator":"Thane Municipal Transport","public_transport":"platform","ref":"348"}},{"type":"Feature","geometry":{"type":"Point","coordinates":[72.9920346,19.2062074]},"properties":{"highway":"bus_stop","name":"Saket Complex","operator":"Thane Municipal Transport","public_transport":"platform","ref":"940"}},{"type":"Feature","geometry":{"type":"Point","coordinates":[72.9945497,19.2090989]},"properties":{"highway":"bus_stop","name":"Saket Phata","operator":"Thane Municipal Transport","public_transport":"platform","ref":"939"}},{"type":"Feature","geometry":{"type":"Point","coordinates":[72.971465,19.2604117]},"properties":{"highway":"bus_stop","name":"Sambhaji Hotel","operator":"Thane Municipal Transport","public_transport":"platform","ref":"3415"}},{"type":"Feature","geometry":{"type":"Point","coordinates":[72.854006,19.0998096]},"properties":{"highway":"bus_stop","name":"Sambhaji Nagar","operator":"Thane Municipal Transport","public_transport":"platform","ref":"196"}},{"type":"Feature","geometry":{"type":"Point","coordinates":[72.8753644,19.2651561]},"properties":{"highway":"bus_stop","name":"Samrat Hotel / Mahavishnu Mandir","operator":"Thane Municipal Transport","public_transport":"platform","ref":"1615"}},{"type":"Feature","geometry":{"type":"Point","coordinates":[72.870433,19.1205311]},"properties":{"highway":"bus_stop","name":"Samrudhi Venture Park Tunga","operator":"Thane Municipal Transport","public_transport":"platform","ref":"3769"}},{"type":"Feature","geometry":{"type":"Point","coordinates":[72.9877036,19.23341]},"properties":{"highway":"bus_stop","name":"Sandoz Baug","operator":"Thane Municipal Transport","public_transport":"platform","ref":"829"}},{"type":"Feature","geometry":{"type":"Point","coordinates":[72.9597866,19.1660172]},"properties":{"highway":"bus_stop","name":"Sane Guruji Chowk","operator":"Thane Municipal Transport","public_transport":"platform","ref":"2799"}},{"type":"Feature","geometry":{"type":"Point","coordinates":[73.022395,19.1802272]},"properties":{"highway":"bus_stop","name":"Sanjay Nagar/Shiv Sena Office","operator":"Thane Municipal Transport","public_transport":"platform","ref":"2373"}},{"type":"Feature","geometry":{"type":"Point","coordinates":[73.0224167,19.1802254]},"properties":{"highway":"bus_stop","name":"Sanjaya Nagar","operator":"Thane Municipal Transport","public_transport":"platform","ref":"2755"}},{"type":"Feature","geometry":{"type":"Point","coordinates":[72.948327,19.183018]},"properties":{"highway":"bus_stop","name":"Santoshi Mata Mandir","operator":"Thane Municipal Transport","public_transport":"platform","ref":"988"}},{"type":"Feature","geometry":{"type":"Point","coordinates":[72.9502413,19.1833434]},"properties":{"highway":"bus_stop","name":"Santoshi Mata Temple","operator":"Thane Municipal Transport","public_transport":"platform","ref":"2525"}},{"type":"Feature","geometry":{"type":"Point","coordinates":[72.956645,19.187501]},"properties":{"highway":"bus_stop","name":"Saraswati School","operator":"Thane Municipal Transport","public_transport":"platform","ref":"62"}},{"type":"Feature","geometry":{"type":"Point","coordinates":[72.9691018,19.1972601]},"properties":{"highway":"bus_stop","name":"Sarovar Darshan / Mahapalika Bhavan","operator":"Thane Municipal Transport","public_transport":"platform","ref":"1795"}},{"type":"Feature","geometry":{"type":"Point","coordinates":[72.8996206,19.3150397]},"properties":{"highway":"bus_stop","name":"Sasunavghar","operator":"Thane Municipal Transport","public_transport":"platform","ref":"3493"}},{"type":"Feature","geometry":{"type":"Point","coordinates":[72.9488287,19.200688]},"properties":{"highway":"bus_stop","name":"Sathe Nagar","operator":"Thane Municipal Transport","public_transport":"platform","ref":"155"}},{"type":"Feature","geometry":{"type":"Point","coordinates":[72.8725715,19.405879]},"properties":{"highway":"bus_stop","name":"Sativali Naka","operator":"Thane Municipal Transport","public_transport":"platform","ref":"3484"}},{"type":"Feature","geometry":{"type":"Point","coordinates":[72.8825774,19.4026539]},"properties":{"highway":"bus_stop","name":"Sativali Phata","operator":"Thane Municipal Transport","public_transport":"platform","ref":"3486"}},{"type":"Feature","geometry":{"type":"Point","coordinates":[72.8771823,19.4046911]},"properties":{"highway":"bus_stop","name":"Sativali Phata Bus Station / Gavri Devi Temple","operator":"Thane Municipal Transport","public_transport":"platform","ref":"3485"}},{"type":"Feature","geometry":{"type":"Point","coordinates":[72.9534702,19.2043118]},"properties":{"highway":"bus_stop","name":"Savarkar Nagar Naka","operator":"Thane Municipal Transport","public_transport":"platform","ref":"158"}},{"type":"Feature","geometry":{"type":"Point","coordinates":[72.950466,19.20574]},"properties":{"highway":"bus_stop","name":"Sawarkar Nagar","operator":"Thane Municipal Transport","public_transport":"platform","ref":"513"}},{"type":"Feature","geometry":{"type":"Point","coordinates":[72.977752,19.2017957]},"properties":{"highway":"bus_stop","name":"School No 7","operator":"Thane Municipal Transport","public_transport":"platform","ref":"428"}},{"type":"Feature","geometry":{"type":"Point","coordinates":[72.8737768,19.1264527]},"properties":{"highway":"bus_stop","name":"Seepz","operator":"Thane Municipal Transport","public_transport":"platform","ref":"3771"}},{"type":"Feature","geometry":{"type":"Point","coordinates":[72.87272,19.1247574]},"properties":{"highway":"bus_stop","name":"Seepz Bus Station","operator":"Thane Municipal Transport","public_transport":"platform","ref":"3951"}},{"type":"Feature","geometry":{"type":"Point","coordinates":[72.8761405,19.1295534]},"properties":{"highway":"bus_stop","name":"Seepz Gaon","operator":"Thane Municipal Transport","public_transport":"platform","ref":"3772"}},{"type":"Feature","geometry":{"type":"Point","coordinates":[72.9674388,19.1874328]},"properties":{"highway":"bus_stop","name":"Shahu Maharaj Market","operator":"Thane Municipal Transport","public_transport":"platform","ref":"176"}},{"type":"Feature","geometry":{"type":"Point","coordinates":[72.8550416,19.1286017]},"properties":{"highway":"bus_stop","name":"Shankarwadi","operator":"Thane Municipal Transport","public_transport":"platform","ref":"2563"}},{"type":"Feature","geometry":{"type":"Point","coordinates":[72.906389,19.2802243]},"properties":{"highway":"bus_stop","name":"Shashkiy Vishram Gruh Versova, Ghodbunder","operator":"Thane Municipal Transport","public_transport":"platform","ref":"595"}},{"type":"Feature","geometry":{"type":"Point","coordinates":[72.9704799,19.1824192]},"properties":{"highway":"bus_stop","name":"Shaskiya Niwas Kopri","operator":"Thane Municipal Transport","public_transport":"platform","ref":"1978"}},{"type":"Feature","geometry":{"type":"Point","coordinates":[72.9591433,19.2133834]},"properties":{"highway":"bus_stop","name":"Shastri Nagar","operator":"Thane Municipal Transport","public_transport":"platform","ref":"203"}},{"type":"Feature","geometry":{"type":"Point","coordinates":[72.9591067,19.2127233]},"properties":{"highway":"bus_stop","name":"Shastri Nagar Naka","operator":"Thane Municipal Transport","public_transport":"platform","ref":"202"}},{"type":"Feature","geometry":{"type":"Point","coordinates":[72.9674797,19.1883063]},"properties":{"highway":"bus_stop","name":"Shaumarket","operator":"Thane Municipal Transport","public_transport":"platform","ref":"879"}},{"type":"Feature","geometry":{"type":"Point","coordinates":[72.8638375,19.283278]},"properties":{"highway":"bus_stop","name":"Sheetal Nagar","operator":"Thane Municipal Transport","public_transport":"platform","ref":"578"}},{"type":"Feature","geometry":{"type":"Point","coordinates":[72.8679692,19.281652]},"properties":{"highway":"bus_stop","name":"Sheetal Sarovar","operator":"Thane Municipal Transport","public_transport":"platform","ref":"577"}},{"type":"Feature","geometry":{"type":"Point","coordinates":[73.0402197,19.14762]},"properties":{"highway":"bus_stop","name":"Shibli Nagar","operator":"Thane Municipal Transport","public_transport":"platform","ref":"3611"}},{"type":"Feature","geometry":{"type":"Point","coordinates":[72.9822472,19.2283822]},"properties":{"highway":"bus_stop","name":"Shidheswer Garden","operator":"Thane Municipal Transport","public_transport":"platform","ref":"2199"}},{"type":"Feature","geometry":{"type":"Point","coordinates":[73.0453168,19.143616]},"properties":{"highway":"bus_stop","name":"Shil Phata","operator":"Thane Municipal Transport","public_transport":"platform","ref":"3609"}},{"type":"Feature","geometry":{"type":"Point","coordinates":[73.0284837,19.1633165]},"properties":{"highway":"bus_stop","name":"Shimla Park","operator":"Thane Municipal Transport","public_transport":"platform","ref":"2748"}},{"type":"Feature","geometry":{"type":"Point","coordinates":[72.8981621,19.122882]},"properties":{"highway":"bus_stop","name":"Shipping Corporation","operator":"Thane Municipal Transport","public_transport":"platform","ref":"3776"}},{"type":"Feature","geometry":{"type":"Point","coordinates":[72.985874,19.228397]},"properties":{"highway":"bus_stop","name":"Shitla Mata Mandir","operator":"Thane Municipal Transport","public_transport":"platform","ref":"1285"}},{"type":"Feature","geometry":{"type":"Point","coordinates":[72.954633,19.17389]},"properties":{"highway":"bus_stop","name":"Shiv Sena Shakha Mulund","operator":"Thane Municipal Transport","public_transport":"platform","ref":"1327"}},{"type":"Feature","geometry":{"type":"Point","coordinates":[72.95427,19.2156669]},"properties":{"highway":"bus_stop","name":"Shivai Nagar","operator":"Thane Municipal Transport","public_transport":"platform","ref":"125"}},{"type":"Feature","geometry":{"type":"Point","coordinates":[72.9793302,19.24968]},"properties":{"highway":"bus_stop","name":"Shree Maa Bal Niketan","operator":"Thane Municipal Transport","public_transport":"platform","ref":"88"}},{"type":"Feature","geometry":{"type":"Point","coordinates":[73.042293,19.229395]},"properties":{"highway":"bus_stop","name":"Shree Ram Nagar","operator":"Thane Municipal Transport","public_transport":"platform","ref":"1475"}},{"type":"Feature","geometry":{"type":"Point","coordinates":[72.9588689,19.2757505]},"properties":{"highway":"bus_stop","name":"Shri Ram Hospital","operator":"Thane Municipal Transport","public_transport":"platform","ref":"3"}},{"type":"Feature","geometry":{"type":"Point","coordinates":[72.9801307,19.206045]},"properties":{"highway":"bus_stop","name":"Shrirang Society","operator":"Thane Municipal Transport","public_transport":"platform","ref":"1826"}},{"type":"Feature","geometry":{"type":"Point","coordinates":[72.9806152,19.22524]},"properties":{"highway":"bus_stop","name":"Shruti Park","operator":"Thane Municipal Transport","public_transport":"platform","ref":"483"}},{"type":"Feature","geometry":{"type":"Point","coordinates":[72.8634803,19.1388104]},"properties":{"highway":"bus_stop","name":"Shyam Nagar","operator":"Thane Municipal Transport","public_transport":"platform","ref":"3958"}},{"type":"Feature","geometry":{"type":"Point","coordinates":[72.970706,19.182417]},"properties":{"highway":"bus_stop","name":"Siddarth Nagar Shashkiya Niwas","operator":"Thane Municipal Transport","public_transport":"platform","ref":"1099"}},{"type":"Feature","geometry":{"type":"Point","coordinates":[72.9650517,19.2258089]},"properties":{"highway":"bus_stop","name":"Siddhachal Society","operator":"Thane Municipal Transport","public_transport":"platform","ref":"755"}},{"type":"Feature","geometry":{"type":"Point","coordinates":[72.8320086,18.9332504]},"properties":{"highway":"bus_stop","name":"Siddharth College (Hutatma Chowk)","operator":"Thane Municipal Transport","public_transport":"platform","ref":"3995"}},{"type":"Feature","geometry":{"type":"Point","coordinates":[72.970477,19.1824244]},"properties":{"highway":"bus_stop","name":"Siddharth Nagar Shashkiya Niwas","operator":"Thane Municipal Transport","public_transport":"platform","ref":"1095"}},{"type":"Feature","geometry":{"type":"Point","coordinates":[72.9742555,19.2096897]},"properties":{"highway":"bus_stop","name":"Siddhivinayak Tower","operator":"Thane Municipal Transport","public_transport":"platform","ref":"113"}},{"type":"Feature","geometry":{"type":"Point","coordinates":[72.967174,19.202622]},"properties":{"highway":"bus_stop","name":"Sidheswar Talav","operator":"Thane Municipal Transport","public_transport":"platform","ref":"211"}},{"type":"Feature","geometry":{"type":"Point","coordinates":[72.8724547,19.2812394]},"properties":{"highway":"bus_stop","name":"Silver Park","operator":"Thane Municipal Transport","public_transport":"platform","ref":"585"}},{"type":"Feature","geometry":{"type":"Point","coordinates":[72.8740933,19.2821731]},"properties":{"highway":"bus_stop","name":"Silver Park Highway","operator":"Thane Municipal Transport","public_transport":"platform","ref":"575"}},{"type":"Feature","geometry":{"type":"Point","coordinates":[72.8601553,19.0361357]},"properties":{"highway":"bus_stop","name":"Sion Hospital / Tilak Hospital","operator":"Thane Municipal Transport","public_transport":"platform","ref":"4000"}},{"type":"Feature","geometry":{"type":"Point","coordinates":[72.8637023,19.2834643]},"properties":{"highway":"bus_stop","name":"Snehanjali","operator":"Thane Municipal Transport","public_transport":"platform","ref":"579"}},{"type":"Feature","geometry":{"type":"Point","coordinates":[72.97321,19.2004]},"properties":{"highway":"bus_stop","name":"St Work Shop","operator":"Thane Municipal Transport","public_transport":"platform","ref":"883"}},{"type":"Feature","geometry":{"type":"Point","coordinates":[72.9771517,19.2403545]},"properties":{"highway":"bus_stop","name":"St. Xavier School","operator":"Thane Municipal Transport","public_transport":"platform","ref":"2481"}},{"type":"Feature","geometry":{"type":"Point","coordinates":[72.9771546,19.2403489]},"properties":{"highway":"bus_stop","name":"St. Xaviers School","operator":"Thane Municipal Transport","public_transport":"platform","ref":"82"}},{"type":"Feature","geometry":{"type":"Point","coordinates":[72.9796214,19.2565462]},"properties":{"highway":"bus_stop","name":"Standford Society","operator":"Thane Municipal Transport","public_transport":"platform","ref":"95"}},{"type":"Feature","geometry":{"type":"Point","coordinates":[72.9795136,19.2564307]},"properties":{"highway":"bus_stop","name":"Stanford Society","operator":"Thane Municipal Transport","public_transport":"platform","ref":"90"}},{"type":"Feature","geometry":{"type":"Point","coordinates":[72.99348833,19.19767]},"properties":{"highway":"bus_stop","name":"Start Of Track 20191227-071239","operator":"Thane Municipal Transport","public_transport":"platform","ref":"2691"}},{"type":"Feature","geometry":{"type":"Point","coordinates":[72.973884,19.216235]},"properties":{"highway":"bus_stop","name":"Subhash Nagar","operator":"Thane Municipal Transport","public_transport":"platform","ref":"394"}},{"type":"Feature","geometry":{"type":"Point","coordinates":[73.01139167,19.2076782]},"properties":{"highway":"bus_stop","name":"Subhash Tower","operator":"Thane Municipal Transport","public_transport":"platform","ref":"2362"}},{"type":"Feature","geometry":{"type":"Point","coordinates":[72.9953148,19.1986771]},"properties":{"highway":"bus_stop","name":"Sukur Park","operator":"Thane Municipal Transport","public_transport":"platform","ref":"1745"}},{"type":"Feature","geometry":{"type":"Point","coordinates":[73.0423685,19.2199211]},"properties":{"highway":"bus_stop","name":"Surai Phata","operator":"Thane Municipal Transport","public_transport":"platform","ref":"1474"}},{"type":"Feature","geometry":{"type":"Point","coordinates":[72.9675643,19.1816112]},"properties":{"highway":"bus_stop","name":"Swami Vivekanand Chowk","operator":"Thane Municipal Transport","public_transport":"platform","ref":"1094"}},{"type":"Feature","geometry":{"type":"Point","coordinates":[72.9461797,19.233575]},"properties":{"highway":"bus_stop","name":"Swanand Ashram","operator":"Thane Municipal Transport","public_transport":"platform","ref":"242"}},{"type":"Feature","geometry":{"type":"Point","coordinates":[73.0405104,19.1473875]},"properties":{"highway":"bus_stop","name":"Swarvali Devi","operator":"Thane Municipal Transport","public_transport":"platform","ref":"3610"}},{"type":"Feature","geometry":{"type":"Point","coordinates":[72.9827308,19.2433775]},"properties":{"highway":"bus_stop","name":"Swastik Park","operator":"Thane Municipal Transport","public_transport":"platform","ref":"85"}},{"type":"Feature","geometry":{"type":"Point","coordinates":[72.9770962,19.262335]},"properties":{"highway":"bus_stop","name":"Swastik Regalia","operator":"Thane Municipal Transport","public_transport":"platform","ref":"1874"}},{"type":"Feature","geometry":{"type":"Point","coordinates":[73.077142,19.276175]},"properties":{"highway":"bus_stop","name":"Swayam Siddhi College","operator":"Thane Municipal Transport","public_transport":"platform","ref":"1413"}},{"type":"Feature","geometry":{"type":"Point","coordinates":[72.9320298,19.1249318]},"properties":{"highway":"bus_stop","name":"Tagor Nagar","operator":"Thane Municipal Transport","public_transport":"platform","ref":"3785"}},{"type":"Feature","geometry":{"type":"Point","coordinates":[72.9766613,19.1933212]},"properties":{"highway":"bus_stop","name":"Talao Pali","operator":"Thane Municipal Transport","public_transport":"platform","ref":"141"}},{"type":"Feature","geometry":{"type":"Point","coordinates":[72.9767111,19.1937988]},"properties":{"highway":"bus_stop","name":"Talao Pali / Jambhali Naka","operator":"Thane Municipal Transport","public_transport":"platform","ref":"1793"}},{"type":"Feature","geometry":{"type":"Point","coordinates":[72.9767102,19.1937981]},"properties":{"highway":"bus_stop","name":"Talavpali","operator":"Thane Municipal Transport","public_transport":"platform","ref":"929"}},{"type":"Feature","geometry":{"type":"Point","coordinates":[73.024443,19.1700719]},"properties":{"highway":"bus_stop","name":"Tanwar Nagar","operator":"Thane Municipal Transport","public_transport":"platform","ref":"2741"}},{"type":"Feature","geometry":{"type":"Point","coordinates":[72.9490625,19.1977002]},"properties":{"highway":"bus_stop","name":"Tata Motors","operator":"Thane Municipal Transport","public_transport":"platform","ref":"3149"}},{"type":"Feature","geometry":{"type":"Point","coordinates":[72.977275,19.223444]},"properties":{"highway":"bus_stop","name":"Tattvagyan Vidyapeeth","operator":"Thane Municipal Transport","public_transport":"platform","ref":"19"}},{"type":"Feature","geometry":{"type":"Point","coordinates":[72.8465026,19.0679229]},"properties":{"highway":"bus_stop","name":"Teachers Colony","operator":"Thane Municipal Transport","public_transport":"platform","ref":"2570"}},{"type":"Feature","geometry":{"type":"Point","coordinates":[72.9772446,19.1971022]},"properties":{"highway":"bus_stop","name":"TebhiNaka","operator":"Thane Municipal Transport","public_transport":"platform","ref":"930"}},{"type":"Feature","geometry":{"type":"Point","coordinates":[72.9627439,19.1877118]},"properties":{"highway":"bus_stop","name":"Teen Hat Naka","operator":"Thane Municipal Transport","public_transport":"platform","ref":"3138"}},{"type":"Feature","geometry":{"type":"Point","coordinates":[72.962277,19.187376]},"properties":{"highway":"bus_stop","name":"Teen Hath Naka","operator":"Thane Municipal Transport","public_transport":"platform","ref":"216"}},{"type":"Feature","geometry":{"type":"Point","coordinates":[72.9772411,19.1965218]},"properties":{"highway":"bus_stop","name":"Tembhi Naka","operator":"Thane Municipal Transport","public_transport":"platform","ref":"142"}},{"type":"Feature","geometry":{"type":"Point","coordinates":[72.97723,19.19686]},"properties":{"highway":"bus_stop","name":"Tembhi Naka / Court Naka","operator":"Thane Municipal Transport","public_transport":"platform","ref":"225"}},{"type":"Feature","geometry":{"type":"Point","coordinates":[72.976542,19.18503]},"properties":{"highway":"bus_stop","name":"Thane Station (East) Kopri","operator":"Thane Municipal Transport","public_transport":"platform","ref":"1097"}},{"type":"Feature","geometry":{"type":"Point","coordinates":[72.9766758,19.1851224]},"properties":{"highway":"bus_stop","name":"Thane Station East Kopri","operator":"Thane Municipal Transport","public_transport":"platform","ref":"1980"}},{"type":"Feature","geometry":{"type":"Point","coordinates":[72.975421,19.186713]},"properties":{"highway":"bus_stop","name":"Thane Station West SATIS","operator":"Thane Municipal Transport","public_transport":"platform","ref":"33"}},{"type":"Feature","geometry":{"type":"Point","coordinates":[72.9658815,19.2370429]},"properties":{"highway":"bus_stop","name":"Tikuji Ni Wadi","operator":"Thane Municipal Transport","public_transport":"platform","ref":"779"}},{"type":"Feature","geometry":{"type":"Point","coordinates":[72.9658822,19.2370451]},"properties":{"highway":"bus_stop","name":"Tikujiniwadi","operator":"Thane Municipal Transport","public_transport":"platform","ref":"901"}},{"type":"Feature","geometry":{"type":"Point","coordinates":[72.8636758,19.4063364]},"properties":{"highway":"bus_stop","name":"Tirupati","operator":"Thane Municipal Transport","public_transport":"platform","ref":"3481"}},{"type":"Feature","geometry":{"type":"Point","coordinates":[72.957499,19.277371]},"properties":{"highway":"bus_stop","name":"Trimurti School","operator":"Thane Municipal Transport","public_transport":"platform","ref":"1066"}},{"type":"Feature","geometry":{"type":"Point","coordinates":[73.0369536,19.2097476]},"properties":{"highway":"bus_stop","name":"Tukaram Niwas","operator":"Thane Municipal Transport","public_transport":"platform","ref":"1471"}},{"type":"Feature","geometry":{"type":"Point","coordinates":[72.9733084,19.2223722]},"properties":{"highway":"bus_stop","name":"Tulshidham","operator":"Thane Municipal Transport","public_transport":"platform","ref":"2162"}},{"type":"Feature","geometry":{"type":"Point","coordinates":[72.973132,19.222475]},"properties":{"highway":"bus_stop","name":"Tulsidham","operator":"Thane Municipal Transport","public_transport":"platform","ref":"2159"}},{"type":"Feature","geometry":{"type":"Point","coordinates":[72.8638375,19.2835357]},"properties":{"highway":"bus_stop","name":"Umrao","operator":"Thane Municipal Transport","public_transport":"platform","ref":"2703"}},{"type":"Feature","geometry":{"type":"Point","coordinates":[72.9579209,19.2229276]},"properties":{"highway":"bus_stop","name":"Upavan Talav","operator":"Thane Municipal Transport","public_transport":"platform","ref":"709"}},{"type":"Feature","geometry":{"type":"Point","coordinates":[72.9536082,19.2205541]},"properties":{"highway":"bus_stop","name":"Upvan Talav","operator":"Thane Municipal Transport","public_transport":"platform","ref":"965"}},{"type":"Feature","geometry":{"type":"Point","coordinates":[72.9780013,19.2029423]},"properties":{"highway":"bus_stop","name":"Uthalsar","operator":"Thane Municipal Transport","public_transport":"platform","ref":"429"}},{"type":"Feature","geometry":{"type":"Point","coordinates":[72.97782,19.202053]},"properties":{"highway":"bus_stop","name":"Uthalsar Naka No 1","operator":"Thane Municipal Transport","public_transport":"platform","ref":"387"}},{"type":"Feature","geometry":{"type":"Point","coordinates":[72.978045,19.203485]},"properties":{"highway":"bus_stop","name":"Uthalsar Naka No 2","operator":"Thane Municipal Transport","public_transport":"platform","ref":"388"}},{"type":"Feature","geometry":{"type":"Point","coordinates":[72.965392,19.2693931]},"properties":{"highway":"bus_stop","name":"Vadvali Naka","operator":"Thane Municipal Transport","public_transport":"platform","ref":"6"}},{"type":"Feature","geometry":{"type":"Point","coordinates":[72.95859,19.2006423]},"properties":{"highway":"bus_stop","name":"Vaiti Wadi","operator":"Thane Municipal Transport","public_transport":"platform","ref":"161"}},{"type":"Feature","geometry":{"type":"Point","coordinates":[72.8659038,19.4068502]},"properties":{"highway":"bus_stop","name":"Valiv Phata","operator":"Thane Municipal Transport","public_transport":"platform","ref":"3482"}},{"type":"Feature","geometry":{"type":"Point","coordinates":[72.9704167,19.1941921]},"properties":{"highway":"bus_stop","name":"Vandana Cinema","operator":"Thane Municipal Transport","public_transport":"platform","ref":"505"}},{"type":"Feature","geometry":{"type":"Point","coordinates":[72.953172,19.176372]},"properties":{"highway":"bus_stop","name":"Vandana Hotel","operator":"Thane Municipal Transport","public_transport":"platform","ref":"994"}},{"type":"Feature","geometry":{"type":"Point","coordinates":[72.9704391,19.194198]},"properties":{"highway":"bus_stop","name":"Vandna Cinema","operator":"Thane Municipal Transport","public_transport":"platform","ref":"881"}},{"type":"Feature","geometry":{"type":"Point","coordinates":[73.0651076,19.305642]},"properties":{"highway":"bus_stop","name":"Vanjarpatti Flyover","operator":"Thane Municipal Transport","public_transport":"platform","ref":"1406"}},{"type":"Feature","geometry":{"type":"Point","coordinates":[72.85644,19.1541606]},"properties":{"highway":"bus_stop","name":"Vanrai / Mhada Colony","operator":"Thane Municipal Transport","public_transport":"platform","ref":"2561"}},{"type":"Feature","geometry":{"type":"Point","coordinates":[72.984401,19.2189814]},"properties":{"highway":"bus_stop","name":"Vardhman Garden","operator":"Thane Municipal Transport","public_transport":"platform","ref":"1281"}},{"type":"Feature","geometry":{"type":"Point","coordinates":[72.9045307,19.2849114]},"properties":{"highway":"bus_stop","name":"Varsova / Fountain Hotel","operator":"Thane Municipal Transport","public_transport":"platform","ref":"1623"}},{"type":"Feature","geometry":{"type":"Point","coordinates":[72.96162,19.210507]},"properties":{"highway":"bus_stop","name":"Vartak Nagar","operator":"Thane Municipal Transport","public_transport":"platform","ref":"258"}},{"type":"Feature","geometry":{"type":"Point","coordinates":[72.961594,19.2099512]},"properties":{"highway":"bus_stop","name":"Vartak Nagar Naka","operator":"Thane Municipal Transport","public_transport":"platform","ref":"129"}},{"type":"Feature","geometry":{"type":"Point","coordinates":[72.9761654,19.2589753]},"properties":{"highway":"bus_stop","name":"Vasant Leela","operator":"Thane Municipal Transport","public_transport":"platform","ref":"1875"}},{"type":"Feature","geometry":{"type":"Point","coordinates":[72.8342628,19.4024207]},"properties":{"highway":"bus_stop","name":"Vasant Nagari","operator":"Thane Municipal Transport","public_transport":"platform","ref":"3474"}},{"type":"Feature","geometry":{"type":"Point","coordinates":[72.9698045,19.221815]},"properties":{"highway":"bus_stop","name":"Vasant Vihar","operator":"Thane Municipal Transport","public_transport":"platform","ref":"438"}},{"type":"Feature","geometry":{"type":"Point","coordinates":[72.9670301,19.2285553]},"properties":{"highway":"bus_stop","name":"Vasant Vihar Phata","operator":"Thane Municipal Transport","public_transport":"platform","ref":"442"}},{"type":"Feature","geometry":{"type":"Point","coordinates":[72.9663004,19.22104]},"properties":{"highway":"bus_stop","name":"Vasant Vihar School","operator":"Thane Municipal Transport","public_transport":"platform","ref":"753"}},{"type":"Feature","geometry":{"type":"Point","coordinates":[72.964505,19.219641]},"properties":{"highway":"bus_stop","name":"Vasant Vihar Telephone Exchange","operator":"Thane Municipal Transport","public_transport":"platform","ref":"398"}},{"type":"Feature","geometry":{"type":"Point","coordinates":[73.0097326,19.20646]},"properties":{"highway":"bus_stop","name":"Vastu Anand","operator":"Thane Municipal Transport","public_transport":"platform","ref":"1485"}},{"type":"Feature","geometry":{"type":"Point","coordinates":[72.9630575,19.2719795]},"properties":{"highway":"bus_stop","name":"Vedant Hospital Garib Nagar","operator":"Thane Municipal Transport","public_transport":"platform","ref":"1069"}},{"type":"Feature","geometry":{"type":"Point","coordinates":[73.041512,19.23335]},"properties":{"highway":"bus_stop","name":"Vehele Panchayat","operator":"Thane Municipal Transport","public_transport":"platform","ref":"1476"}},{"type":"Feature","geometry":{"type":"Point","coordinates":[72.9773092,19.2234475]},"properties":{"highway":"bus_stop","name":"Vidyapith","operator":"Thane Municipal Transport","public_transport":"platform","ref":"892"}},{"type":"Feature","geometry":{"type":"Point","coordinates":[72.9693238,19.2594185]},"properties":{"highway":"bus_stop","name":"Vijay Garden","operator":"Thane Municipal Transport","public_transport":"platform","ref":"10"}},{"type":"Feature","geometry":{"type":"Point","coordinates":[72.969165,19.26048]},"properties":{"highway":"bus_stop","name":"Vijay Garden / D Mart","operator":"Thane Municipal Transport","public_transport":"platform","ref":"345"}},{"type":"Feature","geometry":{"type":"Point","coordinates":[72.9736603,19.2561038]},"properties":{"highway":"bus_stop","name":"Vijay Nagari","operator":"Thane Municipal Transport","public_transport":"platform","ref":"1877"}},{"type":"Feature","geometry":{"type":"Point","coordinates":[72.9763724,19.2061195]},"properties":{"highway":"bus_stop","name":"Vikas Complex","operator":"Thane Municipal Transport","public_transport":"platform","ref":"1036"}},{"type":"Feature","geometry":{"type":"Point","coordinates":[72.9300392,19.1036759]},"properties":{"highway":"bus_stop","name":"Vikhroli Gaon","operator":"Thane Municipal Transport","public_transport":"platform","ref":"4007"}},{"type":"Feature","geometry":{"type":"Point","coordinates":[72.9370905,19.1208657]},"properties":{"highway":"bus_stop","name":"Vikhroli Police Station","operator":"Thane Municipal Transport","public_transport":"platform","ref":"3873"}},{"type":"Feature","geometry":{"type":"Point","coordinates":[72.9318683,19.1084719]},"properties":{"highway":"bus_stop","name":"Vikhroli Station Road","operator":"Thane Municipal Transport","public_transport":"platform","ref":"3871"}},{"type":"Feature","geometry":{"type":"Point","coordinates":[72.9333783,19.1089923]},"properties":{"highway":"bus_stop","name":"Vikhroli Station Road (E)","operator":"Thane Municipal Transport","public_transport":"platform","ref":"4028"}},{"type":"Feature","geometry":{"type":"Point","coordinates":[73.007235,19.204875]},"properties":{"highway":"bus_stop","name":"Vilas Park","operator":"Thane Municipal Transport","public_transport":"platform","ref":"2993"}},{"type":"Feature","geometry":{"type":"Point","coordinates":[72.8457928,19.0918642]},"properties":{"highway":"bus_stop","name":"Vile Parle Sub Way","operator":"Thane Municipal Transport","public_transport":"platform","ref":"2568"}},{"type":"Feature","geometry":{"type":"Point","coordinates":[73.008417,19.20565167]},"properties":{"highway":"bus_stop","name":"Vimal Nagar","operator":"Thane Municipal Transport","public_transport":"platform","ref":"1486"}},{"type":"Feature","geometry":{"type":"Point","coordinates":[72.8589061,19.1706406]},"properties":{"highway":"bus_stop","name":"Virwani Estate /Sarvoday Nagar","operator":"Thane Municipal Transport","public_transport":"platform","ref":"2559"}},{"type":"Feature","geometry":{"type":"Point","coordinates":[72.9697861,19.22297]},"properties":{"highway":"bus_stop","name":"Vivekanand Nagar","operator":"Thane Municipal Transport","public_transport":"platform","ref":"439"}},{"type":"Feature","geometry":{"type":"Point","coordinates":[72.971553,19.216905]},"properties":{"highway":"bus_stop","name":"Voltas Gate","operator":"Thane Municipal Transport","public_transport":"platform","ref":"395"}},{"type":"Feature","geometry":{"type":"Point","coordinates":[72.9827472,19.2084085]},"properties":{"highway":"bus_stop","name":"Vrindavan Society","operator":"Thane Municipal Transport","public_transport":"platform","ref":"1828"}},{"type":"Feature","geometry":{"type":"Point","coordinates":[72.8425417,18.9566363]},"properties":{"highway":"bus_stop","name":"Wadi Bunder","operator":"Thane Municipal Transport","public_transport":"platform","ref":"4033"}},{"type":"Feature","geometry":{"type":"Point","coordinates":[72.9719891,19.252455]},"properties":{"highway":"bus_stop","name":"Wagh Bill Naka","operator":"Thane Municipal Transport","public_transport":"platform","ref":"12"}},{"type":"Feature","geometry":{"type":"Point","coordinates":[72.983151,19.2663454]},"properties":{"highway":"bus_stop","name":"Waghbil Gaon","operator":"Thane Municipal Transport","public_transport":"platform","ref":"1872"}},{"type":"Feature","geometry":{"type":"Point","coordinates":[72.9459006,19.2015921]},"properties":{"highway":"bus_stop","name":"Wagle Agar","operator":"Thane Municipal Transport","public_transport":"platform","ref":"2533"}},{"type":"Feature","geometry":{"type":"Point","coordinates":[72.9453923,19.2007463]},"properties":{"highway":"bus_stop","name":"Wagle Bus Depot","operator":"Thane Municipal Transport","public_transport":"platform","ref":"154"}},{"type":"Feature","geometry":{"type":"Point","coordinates":[72.9495764,19.194549]},"properties":{"highway":"bus_stop","name":"Wagle Circle","operator":"Thane Municipal Transport","public_transport":"platform","ref":"271"}},{"type":"Feature","geometry":{"type":"Point","coordinates":[72.9841912,19.2295415]},"properties":{"highway":"bus_stop","name":"Wellman Company","operator":"Thane Municipal Transport","public_transport":"platform","ref":"831"}},{"type":"Feature","geometry":{"type":"Point","coordinates":[72.8885,19.276148]},"properties":{"highway":"bus_stop","name":"Western Hotel","operator":"Thane Municipal Transport","public_transport":"platform","ref":"1054"}},{"type":"Feature","geometry":{"type":"Point","coordinates":[72.8884896,19.276138]},"properties":{"highway":"bus_stop","name":"Western Hotel / Lakshmi Baug","operator":"Thane Municipal Transport","public_transport":"platform","ref":"570"}},{"type":"Feature","geometry":{"type":"Point","coordinates":[72.9833894,19.2182904]},"properties":{"highway":"bus_stop","name":"Yashaswi Nagar","operator":"Thane Municipal Transport","public_transport":"platform","ref":"480"}},{"type":"Feature","geometry":{"type":"Point","coordinates":[72.98325,19.2189088]},"properties":{"highway":"bus_stop","name":"Yashaswi Nagar Pipeline","operator":"Thane Municipal Transport","public_transport":"platform","ref":"481"}},{"type":"Feature","geometry":{"type":"Point","coordinates":[72.9540062,19.2075186]},"properties":{"highway":"bus_stop","name":"Yashodhan Nagar","operator":"Thane Municipal Transport","public_transport":"platform","ref":"512"}},{"type":"Feature","geometry":{"type":"Point","coordinates":[72.8261375,19.4093106]},"properties":{"highway":"bus_stop","name":"Yashwant Pada","operator":"Thane Municipal Transport","public_transport":"platform","ref":"3471"}},{"type":"Feature","geometry":{"type":"Point","coordinates":[72.943148,19.24015]},"properties":{"highway":"bus_stop","name":"Yeoor / Patonapada","operator":"Thane Municipal Transport","public_transport":"platform","ref":"245"}},{"type":"Feature","geometry":{"type":"Point","coordinates":[72.948227,19.2291593]},"properties":{"highway":"bus_stop","name":"Yeoor Gaon","operator":"Thane Municipal Transport","public_transport":"platform","ref":"240"}}]}